{
"type": "FeatureCollection",
"name": "boundary",
"crs": { "type": "name", "properties": { "name": "urn:ogc:def:crs:OGC:1.3:CRS84" } },
"features": [
{ "type": "Feature", "properties": { "display_name": "Roshchino, Рощинское городское поселение, Vyborgsky District, Leningrad Oblast, Northwestern Federal District, 188820, Russia" }, "geometry": { "type": "Polygon", "coordinates": [ [ [ 29.549565, 60.2481985 ], [ 29.5519821, 60.2462584 ], [ 29.554088, 60.2450711 ], [ 29.5545186, 60.243793 ], [ 29.5572316, 60.2435381 ], [ 29.5616293, 60.2444748 ], [ 29.5639278, 60.2451905 ], [ 29.5652656, 60.2472798 ], [ 29.5654148, 60.2473993 ], [ 29.5675216, 60.2478661 ], [ 29.5695387, 60.2487313 ], [ 29.5711324, 60.2486774 ], [ 29.5736342, 60.2474158 ], [ 29.5744702, 60.2468459 ], [ 29.5769165, 60.2462338 ], [ 29.5783899, 60.2464922 ], [ 29.5789853, 60.2466531 ], [ 29.5840037, 60.2437691 ], [ 29.584241, 60.2438872 ], [ 29.5938245, 60.2384498 ], [ 29.6002754, 60.2348428 ], [ 29.601065, 60.2344588 ], [ 29.602878, 60.2338802 ], [ 29.6042121, 60.2331286 ], [ 29.6080063, 60.2311216 ], [ 29.6111296, 60.232144 ], [ 29.61317, 60.2330863 ], [ 29.6152666, 60.2338399 ], [ 29.6198924, 60.2344184 ], [ 29.6213293, 60.2371631 ], [ 29.6236261, 60.2374637 ], [ 29.6264118, 60.2362911 ], [ 29.6314712, 60.2346979 ], [ 29.6370367, 60.233675 ], [ 29.6400793, 60.2363124 ], [ 29.6414289, 60.2370858 ], [ 29.642965, 60.2369833 ], [ 29.6433818, 60.2370853 ], [ 29.6436999, 60.2374076 ], [ 29.6434865, 60.2375023 ], [ 29.6417092, 60.2381234 ], [ 29.6398456, 60.2390193 ], [ 29.6405376, 60.2394426 ], [ 29.6421253, 60.2407 ], [ 29.6434329, 60.241756 ], [ 29.6439646, 60.2421923 ], [ 29.6480164, 60.2414812 ], [ 29.6534796, 60.2410085 ], [ 29.6538278, 60.2426765 ], [ 29.6538195, 60.244397 ], [ 29.635617, 60.2481452 ], [ 29.6383601, 60.2494323 ], [ 29.6487444, 60.2543041 ], [ 29.6640164, 60.2556359 ], [ 29.6652025, 60.2578577 ], [ 29.660752, 60.2604632 ], [ 29.660585, 60.260621 ], [ 29.6575568, 60.2634828 ], [ 29.6647116, 60.2656817 ], [ 29.6645166, 60.2681792 ], [ 29.6584168, 60.2693841 ], [ 29.6662414, 60.2721826 ], [ 29.6679883, 60.2728856 ], [ 29.6696296, 60.2736164 ], [ 29.6700816, 60.2750364 ], [ 29.6716588, 60.2764743 ], [ 29.672194, 60.277093 ], [ 29.6730057, 60.2783853 ], [ 29.6679799, 60.2790222 ], [ 29.6672459, 60.2773712 ], [ 29.6679764, 60.2765096 ], [ 29.6697863, 60.2750384 ], [ 29.6608691, 60.2720496 ], [ 29.6567309, 60.2787769 ], [ 29.6559191, 60.2822207 ], [ 29.6605367, 60.288882 ], [ 29.6471291, 60.2895604 ], [ 29.6445183, 60.2722472 ], [ 29.6418513, 60.2709274 ], [ 29.6347928, 60.2704764 ], [ 29.6317182, 60.2665678 ], [ 29.6176567, 60.2703007 ], [ 29.6021684, 60.2666154 ], [ 29.6021237, 60.2664312 ], [ 29.6000791, 60.2658959 ], [ 29.5942566, 60.2646634 ], [ 29.5922522, 60.2657567 ], [ 29.5880801, 60.2660073 ], [ 29.5856688, 60.2652973 ], [ 29.5809777, 60.2676759 ], [ 29.5770091, 60.2656763 ], [ 29.5589315, 60.2602886 ], [ 29.5680854, 60.2539506 ], [ 29.5602917, 60.2512903 ], [ 29.549565, 60.2481985 ] ] ] } }
]
}
