{
"type": "FeatureCollection",
"name": "railways",
"crs": { "type": "name", "properties": { "name": "urn:ogc:def:crs:OGC:1.3:CRS84" } },
"features": [
{ "type": "Feature", "properties": { "element_type": "way", "osmid": 156265106, "crossing:barrier": null, "railway": "rail", "name": null, "name:en": null, "name:ru": null, "public_transport": null, "train": null, "esr:user": null, "operator": "ОАО «Российские железные дороги»", "operator:branch": null, "uic_ref": null, "wikidata": null, "wikipedia": null, "name:fi": null, "crossing:light": null, "crossing:bell": null, "supervised": null, "ref": null, "branch": "ОКТ", "electrified": "contact_line", "frequency": "0", "gauge": "1520", "highspeed": "yes", "maxspeed": "200", "passenger_lines": "2", "railway:track_ref": "2", "usage": "main", "voltage": "3000", "service": null, "area": null, "bench": null, "bin": null, "lit": null, "shelter": null, "tactile_paving": null }, "geometry": { "type": "LineString", "coordinates": [ [ 29.6221274, 60.2220581 ], [ 29.6218276, 60.2222122 ], [ 29.6212442, 60.222528 ], [ 29.6206771, 60.2228513 ], [ 29.6128111, 60.2272439 ], [ 29.6104849, 60.2285458 ], [ 29.6020114, 60.2333663 ], [ 29.6005949, 60.2341754 ], [ 29.5957097, 60.2369656 ], [ 29.5823916, 60.2444556 ], [ 29.5810921, 60.2451975 ], [ 29.5789549, 60.2464177 ], [ 29.5782593, 60.2468148 ], [ 29.5780317, 60.2469335 ], [ 29.5776834, 60.2471373 ], [ 29.5742825, 60.2490646 ], [ 29.5726156, 60.2499848 ] ] } },
{ "type": "Feature", "properties": { "element_type": "way", "osmid": 156265111, "crossing:barrier": null, "railway": "rail", "name": null, "name:en": null, "name:ru": null, "public_transport": null, "train": null, "esr:user": null, "operator": "ОАО «Российские железные дороги»", "operator:branch": null, "uic_ref": null, "wikidata": null, "wikipedia": null, "name:fi": null, "crossing:light": null, "crossing:bell": null, "supervised": null, "ref": null, "branch": "ОКТ", "electrified": "contact_line", "frequency": "0", "gauge": "1520", "highspeed": "yes", "maxspeed": "200", "passenger_lines": "2", "railway:track_ref": "1", "usage": "main", "voltage": "3000", "service": null, "area": null, "bench": null, "bin": null, "lit": null, "shelter": null, "tactile_paving": null }, "geometry": { "type": "LineString", "coordinates": [ [ 29.6218869, 60.2222399 ], [ 29.6213049, 60.2225549 ], [ 29.6207385, 60.2228779 ], [ 29.6200771, 60.2232724 ], [ 29.6129288, 60.2272972 ], [ 29.6087649, 60.2296414 ], [ 29.6010182, 60.2339856 ], [ 29.6006193, 60.2342118 ], [ 29.5936165, 60.2381916 ], [ 29.5801973, 60.2457743 ], [ 29.5799871, 60.245893 ], [ 29.5789789, 60.2464626 ], [ 29.5783121, 60.2468371 ], [ 29.5781124, 60.2469589 ], [ 29.5759204, 60.2481975 ] ] } },
{ "type": "Feature", "properties": { "element_type": "way", "osmid": 272550164, "crossing:barrier": null, "railway": "rail", "name": null, "name:en": null, "name:ru": null, "public_transport": null, "train": null, "esr:user": null, "operator": null, "operator:branch": null, "uic_ref": null, "wikidata": null, "wikipedia": null, "name:fi": null, "crossing:light": null, "crossing:bell": null, "supervised": null, "ref": null, "branch": null, "electrified": "no", "frequency": null, "gauge": "1520", "highspeed": null, "maxspeed": null, "passenger_lines": null, "railway:track_ref": null, "usage": null, "voltage": null, "service": "siding", "area": null, "bench": null, "bin": null, "lit": null, "shelter": null, "tactile_paving": null }, "geometry": { "type": "LineString", "coordinates": [ [ 29.5738316, 60.2494389 ], [ 29.5733124, 60.2497989 ], [ 29.5730268, 60.2500464 ], [ 29.5728594, 60.2502718 ], [ 29.5727806, 60.2504391 ] ] } },
{ "type": "Feature", "properties": { "element_type": "way", "osmid": 849540169, "crossing:barrier": null, "railway": "rail", "name": null, "name:en": null, "name:ru": null, "public_transport": null, "train": null, "esr:user": null, "operator": null, "operator:branch": null, "uic_ref": null, "wikidata": null, "wikipedia": null, "name:fi": null, "crossing:light": null, "crossing:bell": null, "supervised": null, "ref": null, "branch": null, "electrified": "contact_line", "frequency": "0", "gauge": "1520", "highspeed": null, "maxspeed": null, "passenger_lines": null, "railway:track_ref": "11", "usage": null, "voltage": "3000", "service": "siding", "area": null, "bench": null, "bin": null, "lit": null, "shelter": null, "tactile_paving": null }, "geometry": { "type": "LineString", "coordinates": [ [ 29.5789789, 60.2464626 ], [ 29.5783664, 60.2468576 ], [ 29.5781711, 60.2469836 ], [ 29.5781217, 60.2470205 ], [ 29.5777943, 60.2472628 ], [ 29.575313, 60.2486757 ] ] } },
{ "type": "Feature", "properties": { "element_type": "way", "osmid": 849540174, "crossing:barrier": null, "railway": "rail", "name": null, "name:en": null, "name:ru": null, "public_transport": null, "train": null, "esr:user": null, "operator": null, "operator:branch": null, "uic_ref": null, "wikidata": null, "wikipedia": null, "name:fi": null, "crossing:light": null, "crossing:bell": null, "supervised": null, "ref": null, "branch": null, "electrified": "contact_line", "frequency": "0", "gauge": "1520", "highspeed": null, "maxspeed": null, "passenger_lines": null, "railway:track_ref": "4", "usage": null, "voltage": "3000", "service": "siding", "area": null, "bench": null, "bin": null, "lit": null, "shelter": null, "tactile_paving": null }, "geometry": { "type": "LineString", "coordinates": [ [ 29.5637892, 60.254988 ], [ 29.5645426, 60.254451 ], [ 29.5673882, 60.2528586 ], [ 29.5679441, 60.2525405 ], [ 29.5681523, 60.2524214 ], [ 29.5688878, 60.251958 ], [ 29.5701957, 60.2512103 ], [ 29.5702202, 60.2511926 ], [ 29.5740321, 60.2490481 ], [ 29.5762709, 60.2477935 ], [ 29.5776834, 60.2471373 ] ] } },
{ "type": "Feature", "properties": { "element_type": "way", "osmid": 849540176, "crossing:barrier": null, "railway": "rail", "name": null, "name:en": null, "name:ru": null, "public_transport": null, "train": null, "esr:user": null, "operator": null, "operator:branch": null, "uic_ref": null, "wikidata": null, "wikipedia": null, "name:fi": null, "crossing:light": null, "crossing:bell": null, "supervised": null, "ref": null, "branch": null, "electrified": "no", "frequency": null, "gauge": "1520", "highspeed": null, "maxspeed": null, "passenger_lines": null, "railway:track_ref": null, "usage": null, "voltage": null, "service": "spur", "area": null, "bench": null, "bin": null, "lit": null, "shelter": null, "tactile_paving": null }, "geometry": { "type": "LineString", "coordinates": [ [ 29.5755037, 60.2481544 ], [ 29.5743976, 60.2485947 ], [ 29.5738615, 60.2488393 ], [ 29.5735061, 60.2490311 ], [ 29.5727474, 60.2494866 ], [ 29.5713874, 60.2503973 ], [ 29.5709057, 60.2507374 ] ] } },
{ "type": "Feature", "properties": { "element_type": "way", "osmid": 849540177, "crossing:barrier": null, "railway": "rail", "name": null, "name:en": null, "name:ru": null, "public_transport": null, "train": null, "esr:user": null, "operator": null, "operator:branch": null, "uic_ref": null, "wikidata": null, "wikipedia": null, "name:fi": null, "crossing:light": null, "crossing:bell": null, "supervised": null, "ref": null, "branch": null, "electrified": "contact_line", "frequency": "0", "gauge": "1520", "highspeed": null, "maxspeed": null, "passenger_lines": null, "railway:track_ref": "6", "usage": null, "voltage": "3000", "service": "siding", "area": null, "bench": null, "bin": null, "lit": null, "shelter": null, "tactile_paving": null }, "geometry": { "type": "LineString", "coordinates": [ [ 29.5762709, 60.2477935 ], [ 29.5755037, 60.2481544 ], [ 29.5709057, 60.2507374 ] ] } },
{ "type": "Feature", "properties": { "element_type": "way", "osmid": 849540180, "crossing:barrier": null, "railway": "rail", "name": null, "name:en": null, "name:ru": null, "public_transport": null, "train": null, "esr:user": null, "operator": null, "operator:branch": null, "uic_ref": null, "wikidata": null, "wikipedia": null, "name:fi": null, "crossing:light": null, "crossing:bell": null, "supervised": null, "ref": null, "branch": null, "electrified": "contact_line", "frequency": "0", "gauge": "1520", "highspeed": null, "maxspeed": null, "passenger_lines": null, "railway:track_ref": "3", "usage": null, "voltage": "3000", "service": "siding", "area": null, "bench": null, "bin": null, "lit": null, "shelter": null, "tactile_paving": null }, "geometry": { "type": "LineString", "coordinates": [ [ 29.5744547, 60.2490217 ], [ 29.5738316, 60.2494389 ], [ 29.5707361, 60.2512038 ], [ 29.5602812, 60.2570973 ], [ 29.5591443, 60.2577282 ] ] } },
{ "type": "Feature", "properties": { "element_type": "way", "osmid": 849540185, "crossing:barrier": null, "railway": "rail", "name": null, "name:en": null, "name:ru": null, "public_transport": null, "train": null, "esr:user": null, "operator": null, "operator:branch": null, "uic_ref": null, "wikidata": null, "wikipedia": null, "name:fi": null, "crossing:light": null, "crossing:bell": null, "supervised": null, "ref": null, "branch": null, "electrified": "no", "frequency": null, "gauge": "1520", "highspeed": null, "maxspeed": null, "passenger_lines": null, "railway:track_ref": null, "usage": null, "voltage": null, "service": "spur", "area": null, "bench": null, "bin": null, "lit": null, "shelter": null, "tactile_paving": null }, "geometry": { "type": "LineString", "coordinates": [ [ 29.5679441, 60.2525405 ], [ 29.5682891, 60.2522558 ], [ 29.5685911, 60.2520295 ], [ 29.5693428, 60.2513599 ], [ 29.5696633, 60.2511031 ], [ 29.5697348, 60.2510614 ], [ 29.5715859, 60.2499839 ], [ 29.5728744, 60.2491993 ], [ 29.5752447, 60.2477428 ] ] } },
{ "type": "Feature", "properties": { "element_type": "way", "osmid": 1219359154, "crossing:barrier": null, "railway": "rail", "name": null, "name:en": null, "name:ru": null, "public_transport": null, "train": null, "esr:user": null, "operator": "ОАО «Российские железные дороги»", "operator:branch": null, "uic_ref": null, "wikidata": null, "wikipedia": null, "name:fi": null, "crossing:light": null, "crossing:bell": null, "supervised": null, "ref": null, "branch": "ОКТ", "electrified": "contact_line", "frequency": "0", "gauge": "1520", "highspeed": "yes", "maxspeed": "200", "passenger_lines": "2", "railway:track_ref": "2", "usage": "main", "voltage": "3000", "service": null, "area": null, "bench": null, "bin": null, "lit": null, "shelter": null, "tactile_paving": null }, "geometry": { "type": "LineString", "coordinates": [ [ 29.5726156, 60.2499848 ], [ 29.5705393, 60.2511542 ], [ 29.5658175, 60.2538137 ], [ 29.5637892, 60.254988 ], [ 29.5608481, 60.2566343 ], [ 29.557835, 60.2583132 ], [ 29.5543106, 60.2603161 ] ] } },
{ "type": "Feature", "properties": { "element_type": "way", "osmid": 1219359155, "crossing:barrier": null, "railway": "rail", "name": null, "name:en": null, "name:ru": null, "public_transport": null, "train": null, "esr:user": null, "operator": "ОАО «Российские железные дороги»", "operator:branch": null, "uic_ref": null, "wikidata": null, "wikipedia": null, "name:fi": null, "crossing:light": null, "crossing:bell": null, "supervised": null, "ref": null, "branch": "ОКТ", "electrified": "contact_line", "frequency": "0", "gauge": "1520", "highspeed": "yes", "maxspeed": "200", "passenger_lines": "2", "railway:track_ref": "1", "usage": "main", "voltage": "3000", "service": null, "area": null, "bench": null, "bin": null, "lit": null, "shelter": null, "tactile_paving": null }, "geometry": { "type": "LineString", "coordinates": [ [ 29.5759204, 60.2481975 ], [ 29.5744547, 60.2490217 ], [ 29.5706377, 60.2511776 ], [ 29.5599389, 60.2572138 ], [ 29.5592048, 60.2576179 ], [ 29.5589006, 60.2577826 ], [ 29.5543647, 60.2603509 ] ] } },
{ "type": "Feature", "properties": { "element_type": "way", "osmid": 1436584725, "crossing:barrier": null, "railway": "rail", "name": null, "name:en": null, "name:ru": null, "public_transport": null, "train": null, "esr:user": null, "operator": null, "operator:branch": null, "uic_ref": null, "wikidata": null, "wikipedia": null, "name:fi": null, "crossing:light": null, "crossing:bell": null, "supervised": null, "ref": null, "branch": null, "electrified": "contact_line", "frequency": "0", "gauge": "1520", "highspeed": null, "maxspeed": null, "passenger_lines": null, "railway:track_ref": null, "usage": null, "voltage": "3000", "service": "siding", "area": null, "bench": null, "bin": null, "lit": null, "shelter": null, "tactile_paving": null }, "geometry": { "type": "LineString", "coordinates": [ [ 29.5709057, 60.2507374 ], [ 29.5702202, 60.2511926 ] ] } }
]
}
