{
"type": "FeatureCollection",
"name": "oopt",
"crs": { "type": "name", "properties": { "name": "urn:ogc:def:crs:OGC:1.3:CRS84" } },
"features": [
{ "type": "Feature", "properties": { }, "geometry": { "type": "Polygon", "coordinates": [ [ [ 30.0940981, 59.5669281 ], [ 30.0949278, 59.5673946 ], [ 30.0950101, 59.5674409 ], [ 30.0967074, 59.5684308 ], [ 30.0965458, 59.5685602 ], [ 30.096125, 59.5688971 ], [ 30.0949951, 59.569583 ], [ 30.0945338, 59.5700134 ], [ 30.094726, 59.5702802 ], [ 30.0951565, 59.5704778 ], [ 30.0949707, 59.5706696 ], [ 30.0951692, 59.570745 ], [ 30.0974341, 59.5716022 ], [ 30.0978548, 59.5718558 ], [ 30.0979134, 59.5718717 ], [ 30.097985, 59.571901 ], [ 30.0980621, 59.5719207 ], [ 30.1025873, 59.5727029 ], [ 30.1028562, 59.5727509 ], [ 30.1031791, 59.5727994 ], [ 30.1032045, 59.5727828 ], [ 30.1033175, 59.5727433 ], [ 30.1034442, 59.572688 ], [ 30.1034886, 59.5725974 ], [ 30.1034374, 59.5725377 ], [ 30.1032865, 59.5724416 ], [ 30.1033721, 59.572472 ], [ 30.1042645, 59.5726534 ], [ 30.1046155, 59.5727034 ], [ 30.1048495, 59.5727692 ], [ 30.1096764, 59.5740901 ], [ 30.112585, 59.5725292 ], [ 30.1127804, 59.5724699 ], [ 30.1130324, 59.5723503 ], [ 30.113616, 59.5719453 ], [ 30.1159011, 59.5707171 ], [ 30.1138897, 59.5697467 ], [ 30.1140217, 59.5696256 ], [ 30.1143058, 59.5693977 ], [ 30.1144974, 59.5691255 ], [ 30.1157096, 59.5681584 ], [ 30.1160274, 59.567715 ], [ 30.1165381, 59.5670823 ], [ 30.1169029, 59.5668443 ], [ 30.1180235, 59.5669108 ], [ 30.1184466, 59.5668665 ], [ 30.1184703, 59.5667686 ], [ 30.1184843, 59.5666967 ], [ 30.1188983, 59.5666247 ], [ 30.119346, 59.566524 ], [ 30.119825, 59.566425 ], [ 30.119726, 59.566303 ], [ 30.1196519, 59.566174 ], [ 30.1196335, 59.5661505 ], [ 30.118605, 59.5648364 ], [ 30.1184607, 59.5646943 ], [ 30.1179936, 59.5643474 ], [ 30.1162143, 59.5632687 ], [ 30.1161472, 59.563226 ], [ 30.1160906, 59.5631899 ], [ 30.1152919, 59.5626711 ], [ 30.1151934, 59.5625731 ], [ 30.1150011, 59.5623816 ], [ 30.1149342, 59.5622969 ], [ 30.1147411, 59.562254 ], [ 30.1146767, 59.5621848 ], [ 30.1146823, 59.5621619 ], [ 30.1147085, 59.5621481 ], [ 30.1147284, 59.5621376 ], [ 30.1146718, 59.5620739 ], [ 30.1146317, 59.5620721 ], [ 30.1145865, 59.56207 ], [ 30.1145591, 59.5620561 ], [ 30.1144937, 59.5619916 ], [ 30.1144864, 59.5619704 ], [ 30.1144738, 59.5619336 ], [ 30.1144701, 59.5619133 ], [ 30.1144212, 59.5617719 ], [ 30.1143341, 59.5616644 ], [ 30.1142495, 59.5615599 ], [ 30.1141377, 59.5616154 ], [ 30.1140705, 59.561554 ], [ 30.1134278, 59.5610157 ], [ 30.1128216, 59.5608243 ], [ 30.1128123, 59.5608174 ], [ 30.1122429, 59.5603922 ], [ 30.1118306, 59.5605469 ], [ 30.1106105, 59.5611336 ], [ 30.108705, 59.5620421 ], [ 30.1083145, 59.5622351 ], [ 30.1083723, 59.5622911 ], [ 30.1083793, 59.5622994 ], [ 30.1083062, 59.5623233 ], [ 30.1082169, 59.5623515 ], [ 30.1080937, 59.5623452 ], [ 30.1079742, 59.5623441 ], [ 30.1078554, 59.5623541 ], [ 30.1077486, 59.5623748 ], [ 30.1076672, 59.5623975 ], [ 30.1076008, 59.5624223 ], [ 30.1075549, 59.5624524 ], [ 30.1074334, 59.5624337 ], [ 30.1073834, 59.5623767 ], [ 30.1069586, 59.562462 ], [ 30.1064367, 59.562607 ], [ 30.1060851, 59.5627325 ], [ 30.1058618, 59.5628558 ], [ 30.1055006, 59.5632425 ], [ 30.104661, 59.5634932 ], [ 30.1046096, 59.5635694 ], [ 30.1044286, 59.5637629 ], [ 30.1043905, 59.5638428 ], [ 30.1037692, 59.5640362 ], [ 30.1027261, 59.5643654 ], [ 30.1024864, 59.5645299 ], [ 30.1016114, 59.5646187 ], [ 30.1016231, 59.5655339 ], [ 30.1016831, 59.5662363 ], [ 30.1013354, 59.5665106 ], [ 30.1002125, 59.5665655 ], [ 30.0993974, 59.5669033 ], [ 30.0987366, 59.5668517 ], [ 30.0985938, 59.5668398 ], [ 30.0983358, 59.5667394 ], [ 30.0983583, 59.5664002 ], [ 30.0982373, 59.5664027 ], [ 30.0981439, 59.5664069 ], [ 30.0981217, 59.5661432 ], [ 30.098118, 59.5660988 ], [ 30.0981075, 59.5659743 ], [ 30.0981144, 59.5655306 ], [ 30.0971874, 59.5654878 ], [ 30.0965451, 59.5657359 ], [ 30.0963481, 59.565988 ], [ 30.0940981, 59.5669281 ] ] ] } },
{ "type": "Feature", "properties": { }, "geometry": { "type": "MultiPolygon", "coordinates": [ [ [ [ 30.3424829, 59.7098078 ], [ 30.3427823, 59.7099783 ], [ 30.3429142, 59.7101973 ], [ 30.3429785, 59.7103173 ], [ 30.3430186, 59.7103921 ], [ 30.3450528, 59.7121464 ], [ 30.3540086, 59.7198687 ], [ 30.3541093, 59.7199555 ], [ 30.3541177, 59.7199772 ], [ 30.3541224, 59.7199969 ], [ 30.3541263, 59.7202438 ], [ 30.3546412, 59.7245769 ], [ 30.3547935, 59.7258582 ], [ 30.3549196, 59.7266986 ], [ 30.3549855, 59.7268276 ], [ 30.3550493, 59.7269423 ], [ 30.3550331, 59.7271521 ], [ 30.3550091, 59.7273783 ], [ 30.3550133, 59.7277248 ], [ 30.3554486, 59.7276755 ], [ 30.3556755, 59.7276695 ], [ 30.3557835, 59.727668 ], [ 30.3561469, 59.72772 ], [ 30.3563419, 59.7275937 ], [ 30.3564879, 59.727657 ], [ 30.356624, 59.7275845 ], [ 30.3567683, 59.7274812 ], [ 30.3577941, 59.7266964 ], [ 30.3592412, 59.7256937 ], [ 30.3597923, 59.7252823 ], [ 30.3604634, 59.7247346 ], [ 30.3611661, 59.7241531 ], [ 30.3622721, 59.7233002 ], [ 30.3631237, 59.7227025 ], [ 30.3638915, 59.7221468 ], [ 30.3643495, 59.7217842 ], [ 30.3648832, 59.721342 ], [ 30.3653706, 59.7209441 ], [ 30.3657123, 59.7206757 ], [ 30.3662401, 59.7203025 ], [ 30.3672951, 59.7195425 ], [ 30.3678001, 59.7191531 ], [ 30.3682766, 59.7187608 ], [ 30.3685037, 59.7185655 ], [ 30.368571, 59.7185077 ], [ 30.3688475, 59.7182889 ], [ 30.3693625, 59.7178979 ], [ 30.3693391, 59.7178892 ], [ 30.3694097, 59.717841 ], [ 30.3694367, 59.7178225 ], [ 30.3694724, 59.7177982 ], [ 30.3695099, 59.7177725 ], [ 30.3695335, 59.7177813 ], [ 30.3699593, 59.717499 ], [ 30.3703925, 59.7172278 ], [ 30.3708713, 59.7169194 ], [ 30.3724375, 59.7159063 ], [ 30.373424, 59.7152213 ], [ 30.3735556, 59.7151288 ], [ 30.3736997, 59.7150352 ], [ 30.3738625, 59.7149447 ], [ 30.3740028, 59.7148648 ], [ 30.3741235, 59.7148066 ], [ 30.3742991, 59.7147424 ], [ 30.3745526, 59.714668 ], [ 30.3755435, 59.7143778 ], [ 30.3757222, 59.7143236 ], [ 30.3758904, 59.7142596 ], [ 30.3760332, 59.7141898 ], [ 30.3761623, 59.714126 ], [ 30.376299, 59.714028 ], [ 30.3778785, 59.7126974 ], [ 30.3780675, 59.7125094 ], [ 30.3780502, 59.7123851 ], [ 30.3780211, 59.7122692 ], [ 30.3780477, 59.7122207 ], [ 30.378071, 59.712195 ], [ 30.3777208, 59.7121359 ], [ 30.3772496, 59.7120564 ], [ 30.3761913, 59.7118794 ], [ 30.3763145, 59.7116011 ], [ 30.3770294, 59.7099868 ], [ 30.3777705, 59.708814 ], [ 30.3778328, 59.7087084 ], [ 30.3779186, 59.7084486 ], [ 30.3763554, 59.7080563 ], [ 30.376322, 59.7078936 ], [ 30.3751229, 59.7075409 ], [ 30.3728995, 59.7068869 ], [ 30.3685025, 59.7061393 ], [ 30.3632551, 59.7053981 ], [ 30.3569679, 59.70451 ], [ 30.3570001, 59.7037348 ], [ 30.3553534, 59.7037222 ], [ 30.35449, 59.7037156 ], [ 30.3513126, 59.7036914 ], [ 30.3498042, 59.7037145 ], [ 30.349291, 59.7038416 ], [ 30.3491109, 59.7044516 ], [ 30.3471084, 59.70597 ], [ 30.3470168, 59.7060287 ], [ 30.3468602, 59.7061291 ], [ 30.3458592, 59.7067707 ], [ 30.3440839, 59.7063326 ], [ 30.3431378, 59.7074434 ], [ 30.3424055, 59.7083031 ], [ 30.3422191, 59.7086133 ], [ 30.3420074, 59.7089657 ], [ 30.3418967, 59.7092966 ], [ 30.3422574, 59.7096469 ], [ 30.3423337, 59.709721 ], [ 30.3424829, 59.7098078 ] ], [ [ 30.3702021, 59.7073811 ], [ 30.3704488, 59.7073919 ], [ 30.3714466, 59.7073054 ], [ 30.3703844, 59.7084959 ], [ 30.369612, 59.7083282 ], [ 30.3700459, 59.7073731 ], [ 30.3702021, 59.7073811 ] ], [ [ 30.3438346, 59.7110369 ], [ 30.3438041, 59.711012 ], [ 30.3443985, 59.7108271 ], [ 30.3446227, 59.7110105 ], [ 30.3445909, 59.7110204 ], [ 30.3448222, 59.7112096 ], [ 30.344788, 59.7112203 ], [ 30.3449069, 59.7113175 ], [ 30.3443769, 59.7114824 ], [ 30.3442158, 59.7113487 ], [ 30.3438346, 59.7110369 ] ] ], [ [ [ 30.3573033, 59.7280282 ], [ 30.3574374, 59.7281418 ], [ 30.35753, 59.7282418 ], [ 30.3575984, 59.7283395 ], [ 30.3576178, 59.728403 ], [ 30.3576353, 59.7284568 ], [ 30.3576456, 59.728483 ], [ 30.3576684, 59.7285115 ], [ 30.3578156, 59.7285589 ], [ 30.3580785, 59.7285839 ], [ 30.3581201, 59.7284203 ], [ 30.3589985, 59.7282263 ], [ 30.359197, 59.7281431 ], [ 30.3594089, 59.7279768 ], [ 30.3596194, 59.727868 ], [ 30.360121, 59.7276996 ], [ 30.360243, 59.727678 ], [ 30.3606728, 59.7276594 ], [ 30.3612294, 59.727698 ], [ 30.3613146, 59.7277385 ], [ 30.3622976, 59.7278889 ], [ 30.3628193, 59.7278896 ], [ 30.36328, 59.7277348 ], [ 30.3633101, 59.727675 ], [ 30.3633698, 59.7276391 ], [ 30.3634174, 59.7276239 ], [ 30.3634389, 59.7276023 ], [ 30.3634872, 59.7275725 ], [ 30.3637534, 59.7273309 ], [ 30.364431, 59.7271849 ], [ 30.3645775, 59.7271534 ], [ 30.3646338, 59.7271514 ], [ 30.3646915, 59.7271601 ], [ 30.3648182, 59.727154 ], [ 30.3650147, 59.727128 ], [ 30.3653499, 59.7271507 ], [ 30.3654586, 59.7271372 ], [ 30.3655927, 59.7270445 ], [ 30.3656946, 59.7270344 ], [ 30.3658006, 59.7269337 ], [ 30.3659213, 59.7268606 ], [ 30.3661392, 59.7267805 ], [ 30.3664047, 59.7267271 ], [ 30.3667662, 59.7266402 ], [ 30.3668842, 59.7265818 ], [ 30.3670002, 59.7265138 ], [ 30.367033, 59.726456 ], [ 30.367076, 59.7264394 ], [ 30.3672194, 59.7264019 ], [ 30.3672737, 59.7263776 ], [ 30.3673314, 59.7263691 ], [ 30.367371, 59.7263576 ], [ 30.3673965, 59.7263269 ], [ 30.3674508, 59.7263218 ], [ 30.3675254, 59.7263006 ], [ 30.367591, 59.7262819 ], [ 30.3678954, 59.7261954 ], [ 30.3680201, 59.7262197 ], [ 30.3680919, 59.7262126 ], [ 30.3687175, 59.7261507 ], [ 30.3686933, 59.7260499 ], [ 30.3687514, 59.7260464 ], [ 30.3687494, 59.7260385 ], [ 30.3688269, 59.7260337 ], [ 30.3689017, 59.7260291 ], [ 30.3689036, 59.7260372 ], [ 30.3689613, 59.7260336 ], [ 30.3689857, 59.7261335 ], [ 30.369382, 59.7260983 ], [ 30.3696143, 59.7259849 ], [ 30.3713843, 59.7252395 ], [ 30.372838, 59.7263241 ], [ 30.372836, 59.7263251 ], [ 30.3740159, 59.7272743 ], [ 30.3740395, 59.7272988 ], [ 30.3743577, 59.7275375 ], [ 30.3759573, 59.7287585 ], [ 30.3764874, 59.7290874 ], [ 30.3767842, 59.7292282 ], [ 30.3769371, 59.7292863 ], [ 30.3770914, 59.7293299 ], [ 30.3777057, 59.729459 ], [ 30.3789444, 59.7296654 ], [ 30.3801222, 59.7298353 ], [ 30.3807529, 59.7298893 ], [ 30.383238, 59.7299538 ], [ 30.3853571, 59.7298912 ], [ 30.3853887, 59.7292593 ], [ 30.3855994, 59.7286664 ], [ 30.3860851, 59.7279863 ], [ 30.386908, 59.7275511 ], [ 30.3880817, 59.7264697 ], [ 30.3893327, 59.7252692 ], [ 30.3916335, 59.727125 ], [ 30.3919028, 59.7270392 ], [ 30.3915046, 59.7267473 ], [ 30.3927655, 59.7263539 ], [ 30.3930367, 59.7263575 ], [ 30.3933459, 59.7266125 ], [ 30.3938528, 59.7264542 ], [ 30.3936012, 59.7262284 ], [ 30.393472, 59.7259672 ], [ 30.3933044, 59.7257858 ], [ 30.3931083, 59.7256127 ], [ 30.3930435, 59.7255554 ], [ 30.3929875, 59.7255111 ], [ 30.3925607, 59.7251732 ], [ 30.3923771, 59.7249697 ], [ 30.3922031, 59.7236433 ], [ 30.3923337, 59.7235973 ], [ 30.3925757, 59.7235118 ], [ 30.3928037, 59.7234347 ], [ 30.3930773, 59.7233496 ], [ 30.3933538, 59.7232684 ], [ 30.3937478, 59.723169 ], [ 30.3940174, 59.7231122 ], [ 30.3942011, 59.7230818 ], [ 30.3943553, 59.7230595 ], [ 30.3948341, 59.7229898 ], [ 30.3950903, 59.7229438 ], [ 30.3951801, 59.7229216 ], [ 30.395277, 59.7228901 ], [ 30.395369, 59.7228482 ], [ 30.395455, 59.7227958 ], [ 30.3955275, 59.7227319 ], [ 30.3955637, 59.7226897 ], [ 30.3955865, 59.7226423 ], [ 30.3955905, 59.7226009 ], [ 30.3955744, 59.7225001 ], [ 30.3955556, 59.7223576 ], [ 30.3955415, 59.7222239 ], [ 30.3955315, 59.7220662 ], [ 30.3955302, 59.7220094 ], [ 30.3955383, 59.7219607 ], [ 30.3955626, 59.7219098 ], [ 30.3955885, 59.721874 ], [ 30.3956342, 59.7218331 ], [ 30.3956496, 59.7217928 ], [ 30.39565, 59.7217672 ], [ 30.3956234, 59.7217104 ], [ 30.3955995, 59.7216405 ], [ 30.3955876, 59.7215442 ], [ 30.3955697, 59.7213072 ], [ 30.3955552, 59.7212767 ], [ 30.3955035, 59.721247 ], [ 30.3954534, 59.7212346 ], [ 30.3953925, 59.7212329 ], [ 30.3953911, 59.7212206 ], [ 30.3953868, 59.7212091 ], [ 30.3953815, 59.7211815 ], [ 30.3953716, 59.7211523 ], [ 30.3953682, 59.7211423 ], [ 30.3953688, 59.7211313 ], [ 30.3954109, 59.7211288 ], [ 30.3954465, 59.7211183 ], [ 30.3954845, 59.7210978 ], [ 30.3955188, 59.7210739 ], [ 30.3955545, 59.7210436 ], [ 30.3955736, 59.7210173 ], [ 30.3955968, 59.7209863 ], [ 30.3956087, 59.7209543 ], [ 30.3956354, 59.7205289 ], [ 30.3956314, 59.7205245 ], [ 30.3956254, 59.7205225 ], [ 30.3955695, 59.7205224 ], [ 30.3955724, 59.7204939 ], [ 30.3955751, 59.7204666 ], [ 30.3956274, 59.7204667 ], [ 30.3956341, 59.7204657 ], [ 30.3956375, 59.7204616 ], [ 30.3956568, 59.7202056 ], [ 30.3956927, 59.7197921 ], [ 30.3957111, 59.719542 ], [ 30.3961614, 59.7193513 ], [ 30.3987408, 59.7185257 ], [ 30.3987566, 59.7184784 ], [ 30.3975081, 59.717491 ], [ 30.3974828, 59.7174713 ], [ 30.3974386, 59.7174861 ], [ 30.3973199, 59.7174248 ], [ 30.3974617, 59.717381 ], [ 30.3971852, 59.7171421 ], [ 30.397839, 59.716931 ], [ 30.3978808, 59.7169198 ], [ 30.398066, 59.716859 ], [ 30.3985944, 59.7166917 ], [ 30.3991045, 59.7165325 ], [ 30.3996344, 59.716363 ], [ 30.4000851, 59.7162218 ], [ 30.4005917, 59.716063 ], [ 30.401191, 59.7158736 ], [ 30.4017958, 59.7156817 ], [ 30.4023647, 59.7155006 ], [ 30.402403, 59.7154883 ], [ 30.402443, 59.7154756 ], [ 30.402464, 59.7154688 ], [ 30.4024724, 59.715465 ], [ 30.4025499, 59.7154413 ], [ 30.4040463, 59.7149663 ], [ 30.4048326, 59.714719 ], [ 30.4048772, 59.7147048 ], [ 30.4049224, 59.7146903 ], [ 30.4055286, 59.7144947 ], [ 30.4069834, 59.7140267 ], [ 30.4086243, 59.7135037 ], [ 30.4087877, 59.713452 ], [ 30.4091617, 59.7133331 ], [ 30.4092319, 59.7133117 ], [ 30.4092544, 59.7133039 ], [ 30.4092691, 59.7132977 ], [ 30.4092776, 59.7132911 ], [ 30.4092953, 59.7132774 ], [ 30.4093074, 59.7132627 ], [ 30.4094793, 59.7130544 ], [ 30.4094617, 59.7130504 ], [ 30.4094426, 59.713046 ], [ 30.4094079, 59.7130357 ], [ 30.4093755, 59.7130236 ], [ 30.4093459, 59.7130098 ], [ 30.4093192, 59.7129946 ], [ 30.4092959, 59.712978 ], [ 30.4092762, 59.7129603 ], [ 30.4092617, 59.7129399 ], [ 30.409249, 59.7129223 ], [ 30.4092425, 59.7129097 ], [ 30.4092391, 59.7128966 ], [ 30.4092367, 59.7128744 ], [ 30.4092393, 59.7128522 ], [ 30.4092471, 59.7128303 ], [ 30.4092597, 59.712809 ], [ 30.4092671, 59.7127979 ], [ 30.4092761, 59.7127876 ], [ 30.4092822, 59.7127811 ], [ 30.4092981, 59.712786 ], [ 30.4093403, 59.7127476 ], [ 30.4093549, 59.7127343 ], [ 30.4093685, 59.7127219 ], [ 30.4094097, 59.7126844 ], [ 30.4093965, 59.7126807 ], [ 30.4094233, 59.7126689 ], [ 30.4094516, 59.7126581 ], [ 30.4094813, 59.7126482 ], [ 30.4095122, 59.7126393 ], [ 30.4095442, 59.7126315 ], [ 30.4095772, 59.7126248 ], [ 30.409611, 59.7126192 ], [ 30.4096439, 59.7126149 ], [ 30.4096773, 59.7126117 ], [ 30.409711, 59.7126096 ], [ 30.4097449, 59.7126085 ], [ 30.4097789, 59.7126086 ], [ 30.4098128, 59.7126097 ], [ 30.4098465, 59.7126119 ], [ 30.4098799, 59.7126152 ], [ 30.4105026, 59.7120702 ], [ 30.4104723, 59.7120362 ], [ 30.4095386, 59.7118778 ], [ 30.4023805, 59.7106639 ], [ 30.4022676, 59.7106749 ], [ 30.4016807, 59.7105775 ], [ 30.4016069, 59.7105711 ], [ 30.4015408, 59.710559 ], [ 30.4013616, 59.7105322 ], [ 30.4011804, 59.7104944 ], [ 30.3980075, 59.7095311 ], [ 30.3962121, 59.7089917 ], [ 30.3903871, 59.7083794 ], [ 30.3902748, 59.7083762 ], [ 30.3901682, 59.7083832 ], [ 30.3856935, 59.7089315 ], [ 30.3837699, 59.7091947 ], [ 30.3835807, 59.7092286 ], [ 30.3834001, 59.7093085 ], [ 30.3830258, 59.7094741 ], [ 30.3830476, 59.7094856 ], [ 30.3828701, 59.7095711 ], [ 30.3828469, 59.7095589 ], [ 30.3824298, 59.7097268 ], [ 30.3820936, 59.7097072 ], [ 30.3813106, 59.7097922 ], [ 30.3811658, 59.7098295 ], [ 30.3809848, 59.7098749 ], [ 30.3807922, 59.7099536 ], [ 30.3806636, 59.7100252 ], [ 30.3805859, 59.7100969 ], [ 30.3804616, 59.7102641 ], [ 30.3801908, 59.7105003 ], [ 30.3801, 59.7105689 ], [ 30.3800137, 59.710624 ], [ 30.3793616, 59.7109518 ], [ 30.3792251, 59.7110204 ], [ 30.3789879, 59.7111869 ], [ 30.378912, 59.7112888 ], [ 30.3786187, 59.7118942 ], [ 30.3783949, 59.7120983 ], [ 30.3783372, 59.712152 ], [ 30.3783052, 59.7121992 ], [ 30.3783409, 59.7122191 ], [ 30.3784522, 59.7122628 ], [ 30.378527, 59.7122912 ], [ 30.3786594, 59.7123413 ], [ 30.378598, 59.712422 ], [ 30.3785713, 59.7124503 ], [ 30.3783364, 59.7125138 ], [ 30.3782889, 59.7125291 ], [ 30.3763847, 59.7141365 ], [ 30.3761966, 59.7143003 ], [ 30.3761253, 59.7143214 ], [ 30.3746912, 59.7147435 ], [ 30.3743629, 59.7148721 ], [ 30.3743227, 59.7148981 ], [ 30.3731411, 59.7156625 ], [ 30.3725771, 59.7160332 ], [ 30.3721524, 59.7163163 ], [ 30.3705628, 59.7173759 ], [ 30.3697317, 59.7179411 ], [ 30.3691665, 59.7183556 ], [ 30.3690294, 59.7184592 ], [ 30.3678846, 59.719356 ], [ 30.3668173, 59.7201657 ], [ 30.3665277, 59.7203855 ], [ 30.3662271, 59.7206026 ], [ 30.3657429, 59.7209575 ], [ 30.3656034, 59.7210723 ], [ 30.3655549, 59.7211067 ], [ 30.3645654, 59.7218708 ], [ 30.3602119, 59.725198 ], [ 30.3573131, 59.7274102 ], [ 30.3570117, 59.7276402 ], [ 30.3571751, 59.7276863 ], [ 30.3571583, 59.7277067 ], [ 30.3571128, 59.7277462 ], [ 30.3569801, 59.7278531 ], [ 30.3571908, 59.7279672 ], [ 30.3573033, 59.7280282 ] ] ] ] } },
{ "type": "Feature", "properties": { }, "geometry": { "type": "Polygon", "coordinates": [ [ [ 30.1008093, 59.5766347 ], [ 30.102346, 59.5772804 ], [ 30.1042359, 59.5779513 ], [ 30.1054745, 59.578391 ], [ 30.1064065, 59.5787218 ], [ 30.1064188, 59.5787263 ], [ 30.1093275, 59.5797818 ], [ 30.1099683, 59.5799763 ], [ 30.1103774, 59.5798006 ], [ 30.1121535, 59.5785991 ], [ 30.1128758, 59.5780949 ], [ 30.1132878, 59.5778073 ], [ 30.1136063, 59.5775812 ], [ 30.1139512, 59.5773312 ], [ 30.1143573, 59.5770369 ], [ 30.1144495, 59.57697 ], [ 30.1147252, 59.5767908 ], [ 30.1145963, 59.5765429 ], [ 30.11318, 59.5739235 ], [ 30.112682, 59.573921 ], [ 30.110681, 59.574199 ], [ 30.1094951, 59.574298 ], [ 30.1093312, 59.5743889 ], [ 30.1086145, 59.574335 ], [ 30.1079035, 59.5742219 ], [ 30.1073144, 59.5740367 ], [ 30.1067038, 59.5741345 ], [ 30.1062678, 59.5738807 ], [ 30.1054172, 59.5733615 ], [ 30.1041475, 59.5742384 ], [ 30.1024318, 59.5754637 ], [ 30.1008093, 59.5766347 ] ] ] } },
{ "type": "Feature", "properties": { }, "geometry": { "type": "Polygon", "coordinates": [ [ [ 30.0751313, 59.584645 ], [ 30.0772123, 59.5858627 ], [ 30.0816664, 59.5884982 ], [ 30.0819462, 59.5885653 ], [ 30.0833417, 59.5895604 ], [ 30.0848144, 59.5903782 ], [ 30.0855153, 59.5905176 ], [ 30.0859383, 59.5908138 ], [ 30.0868568, 59.5913135 ], [ 30.0893968, 59.592812 ], [ 30.0894397, 59.5934332 ], [ 30.089778, 59.5944106 ], [ 30.0898461, 59.594507 ], [ 30.090298, 59.5950275 ], [ 30.0906057, 59.5952001 ], [ 30.091328, 59.5956052 ], [ 30.0926869, 59.5960491 ], [ 30.0996135, 59.5983118 ], [ 30.1004229, 59.5985762 ], [ 30.101584, 59.5989555 ], [ 30.1018411, 59.5990347 ], [ 30.1018089, 59.5987817 ], [ 30.1050512, 59.5912951 ], [ 30.1109428, 59.5919049 ], [ 30.1107168, 59.5924168 ], [ 30.1110434, 59.5924503 ], [ 30.1120277, 59.5925602 ], [ 30.1123882, 59.5918395 ], [ 30.1129076, 59.5919063 ], [ 30.1131453, 59.5909862 ], [ 30.113055, 59.5903367 ], [ 30.1125703, 59.5894203 ], [ 30.1120193, 59.5894619 ], [ 30.1119468, 59.5891286 ], [ 30.1120135, 59.5887954 ], [ 30.112247, 59.5886165 ], [ 30.1122008, 59.5885087 ], [ 30.1121306, 59.5880523 ], [ 30.112331, 59.5874417 ], [ 30.1131295, 59.5864089 ], [ 30.1141451, 59.5838782 ], [ 30.1142805, 59.5835346 ], [ 30.1149901, 59.5830756 ], [ 30.1151296, 59.5829864 ], [ 30.1155308, 59.5827905 ], [ 30.1157199, 59.5827303 ], [ 30.1150101, 59.5819206 ], [ 30.1153031, 59.5816992 ], [ 30.1154616, 59.5815922 ], [ 30.1156826, 59.581529 ], [ 30.1167922, 59.5813004 ], [ 30.1176948, 59.582101 ], [ 30.1179422, 59.5820222 ], [ 30.1171856, 59.5813781 ], [ 30.1171372, 59.5813162 ], [ 30.1169152, 59.5810322 ], [ 30.11577, 59.5788002 ], [ 30.1147252, 59.5767908 ], [ 30.1145963, 59.5765429 ], [ 30.11318, 59.5739235 ], [ 30.1127677, 59.573161 ], [ 30.112743, 59.5728301 ], [ 30.1130324, 59.5723503 ], [ 30.113616, 59.5719453 ], [ 30.1159011, 59.5707171 ], [ 30.1138897, 59.5697467 ], [ 30.1140217, 59.5696256 ], [ 30.1143058, 59.5693977 ], [ 30.1144974, 59.5691255 ], [ 30.1157096, 59.5681584 ], [ 30.1160274, 59.567715 ], [ 30.1165381, 59.5670823 ], [ 30.1169029, 59.5668443 ], [ 30.1180235, 59.5669108 ], [ 30.1184466, 59.5668665 ], [ 30.1184703, 59.5667686 ], [ 30.1184843, 59.5666967 ], [ 30.1188983, 59.5666247 ], [ 30.119346, 59.566524 ], [ 30.119825, 59.566425 ], [ 30.119726, 59.566303 ], [ 30.1196519, 59.566174 ], [ 30.1196335, 59.5661505 ], [ 30.118605, 59.5648364 ], [ 30.1184607, 59.5646943 ], [ 30.1179936, 59.5643474 ], [ 30.1162143, 59.5632687 ], [ 30.1161472, 59.563226 ], [ 30.1160906, 59.5631899 ], [ 30.1152919, 59.5626711 ], [ 30.1151934, 59.5625731 ], [ 30.1155027, 59.5623789 ], [ 30.1157728, 59.5623425 ], [ 30.1170927, 59.5616171 ], [ 30.1172098, 59.5617178 ], [ 30.117904, 59.5614718 ], [ 30.1191745, 59.561237 ], [ 30.1198769, 59.5614841 ], [ 30.1204867, 59.5610773 ], [ 30.1212459, 59.5605709 ], [ 30.1218807, 59.5601474 ], [ 30.1220274, 59.5598017 ], [ 30.1229239, 59.5593534 ], [ 30.1234146, 59.5588255 ], [ 30.124161, 59.5580227 ], [ 30.1239666, 59.5579715 ], [ 30.1243666, 59.5577272 ], [ 30.1246708, 59.5573676 ], [ 30.1236723, 59.5570738 ], [ 30.1236363, 59.5570632 ], [ 30.1240881, 59.5568528 ], [ 30.125432, 59.5565275 ], [ 30.1256044, 59.5565411 ], [ 30.1259808, 59.5566607 ], [ 30.1273052, 59.5570648 ], [ 30.1290447, 59.5553603 ], [ 30.1299613, 59.5542488 ], [ 30.1305732, 59.5535067 ], [ 30.1306897, 59.5523671 ], [ 30.1306241, 59.5521575 ], [ 30.130714, 59.5519754 ], [ 30.1308779, 59.5518575 ], [ 30.1313431, 59.5512976 ], [ 30.1314859, 59.5505118 ], [ 30.1313378, 59.5504564 ], [ 30.1311665, 59.5499411 ], [ 30.1275224, 59.5485166 ], [ 30.1276109, 59.5451944 ], [ 30.1275158, 59.545111 ], [ 30.1273571, 59.5450658 ], [ 30.1165994, 59.5447603 ], [ 30.1113817, 59.5445995 ], [ 30.11051, 59.5446338 ], [ 30.1096202, 59.5521557 ], [ 30.1120234, 59.5540259 ], [ 30.1126814, 59.555215 ], [ 30.1129354, 59.5562576 ], [ 30.1135496, 59.5575378 ], [ 30.1136542, 59.5588315 ], [ 30.1135002, 59.5590213 ], [ 30.1126583, 59.5593646 ], [ 30.1122467, 59.5595158 ], [ 30.1114291, 59.5598487 ], [ 30.1115779, 59.559954 ], [ 30.1120631, 59.5602673 ], [ 30.1122429, 59.5603922 ], [ 30.1118306, 59.5605469 ], [ 30.1106105, 59.5611336 ], [ 30.108705, 59.5620421 ], [ 30.1083145, 59.5622351 ], [ 30.1083723, 59.5622911 ], [ 30.1083793, 59.5622994 ], [ 30.1083062, 59.5623233 ], [ 30.1082169, 59.5623515 ], [ 30.1080937, 59.5623452 ], [ 30.1079742, 59.5623441 ], [ 30.1078554, 59.5623541 ], [ 30.1077486, 59.5623748 ], [ 30.1076672, 59.5623975 ], [ 30.1076008, 59.5624223 ], [ 30.1075549, 59.5624524 ], [ 30.1074334, 59.5624337 ], [ 30.1073834, 59.5623767 ], [ 30.1069586, 59.562462 ], [ 30.1064367, 59.562607 ], [ 30.1060851, 59.5627325 ], [ 30.1058618, 59.5628558 ], [ 30.1055006, 59.5632425 ], [ 30.104661, 59.5634932 ], [ 30.1046096, 59.5635694 ], [ 30.1044286, 59.5637629 ], [ 30.1043905, 59.5638428 ], [ 30.1037692, 59.5640362 ], [ 30.1027261, 59.5643654 ], [ 30.1024864, 59.5645299 ], [ 30.1016114, 59.5646187 ], [ 30.1016231, 59.5655339 ], [ 30.1016831, 59.5662363 ], [ 30.1013354, 59.5665106 ], [ 30.1002125, 59.5665655 ], [ 30.0993974, 59.5669033 ], [ 30.0987366, 59.5668517 ], [ 30.0985938, 59.5668398 ], [ 30.0983358, 59.5667394 ], [ 30.0983583, 59.5664002 ], [ 30.0982373, 59.5664027 ], [ 30.0981439, 59.5664069 ], [ 30.0981217, 59.5661432 ], [ 30.098118, 59.5660988 ], [ 30.0981075, 59.5659743 ], [ 30.0981144, 59.5655306 ], [ 30.0971874, 59.5654878 ], [ 30.0965451, 59.5657359 ], [ 30.0963481, 59.565988 ], [ 30.0940981, 59.5669281 ], [ 30.0937672, 59.5667362 ], [ 30.0937484, 59.5667253 ], [ 30.093734, 59.5667169 ], [ 30.0934781, 59.5665694 ], [ 30.0863542, 59.5698337 ], [ 30.0854933, 59.5702295 ], [ 30.0855864, 59.5702821 ], [ 30.0847816, 59.5706603 ], [ 30.084724, 59.5706831 ], [ 30.0846734, 59.5707031 ], [ 30.0842586, 59.570878 ], [ 30.0842149, 59.5708965 ], [ 30.0831016, 59.571366 ], [ 30.082942, 59.5714227 ], [ 30.0820086, 59.5718615 ], [ 30.0819559, 59.5718905 ], [ 30.0818986, 59.5719199 ], [ 30.0807882, 59.5724347 ], [ 30.0806594, 59.5724986 ], [ 30.0783959, 59.5735692 ], [ 30.0779533, 59.5738267 ], [ 30.0775909, 59.5741409 ], [ 30.0774014, 59.5743752 ], [ 30.0773424, 59.5744812 ], [ 30.07734, 59.5745503 ], [ 30.0772563, 59.5751326 ], [ 30.0772356, 59.5756746 ], [ 30.0770985, 59.579263 ], [ 30.0770788, 59.5797096 ], [ 30.0771183, 59.5805356 ], [ 30.0770838, 59.5810097 ], [ 30.0770225, 59.5813268 ], [ 30.0770096, 59.5813775 ], [ 30.0769434, 59.5816885 ], [ 30.0766797, 59.5823471 ], [ 30.0761326, 59.5830232 ], [ 30.075354, 59.5836445 ], [ 30.0748809, 59.5839464 ], [ 30.0743388, 59.5842108 ], [ 30.0751313, 59.584645 ] ] ] } },
{ "type": "Feature", "properties": { }, "geometry": { "type": "Polygon", "coordinates": [ [ [ 30.4110852, 59.711895 ], [ 30.4111473, 59.7119127 ], [ 30.4119964, 59.7120639 ], [ 30.4142674, 59.7124517 ], [ 30.4153061, 59.7126292 ], [ 30.4161134, 59.7127681 ], [ 30.4165151, 59.7128466 ], [ 30.4168443, 59.7129291 ], [ 30.417134, 59.7130147 ], [ 30.4174794, 59.713128 ], [ 30.4177503, 59.7132264 ], [ 30.4179668, 59.7133177 ], [ 30.4182042, 59.7134371 ], [ 30.4182632, 59.7134722 ], [ 30.4182994, 59.7134937 ], [ 30.4183285, 59.713511 ], [ 30.4183446, 59.7135221 ], [ 30.4187903, 59.7138276 ], [ 30.4189485, 59.7139538 ], [ 30.419139, 59.7141378 ], [ 30.4192577, 59.7142869 ], [ 30.4193395, 59.7144086 ], [ 30.4194266, 59.7145699 ], [ 30.4194897, 59.7147187 ], [ 30.4195473, 59.714881 ], [ 30.4195842, 59.7150146 ], [ 30.419605, 59.7151763 ], [ 30.4196144, 59.7153139 ], [ 30.4196148, 59.7153868 ], [ 30.4196164, 59.7154704 ], [ 30.4196224, 59.715508 ], [ 30.4196405, 59.7155475 ], [ 30.4196791, 59.7155864 ], [ 30.4197103, 59.7156131 ], [ 30.4200055, 59.7158397 ], [ 30.4201479, 59.7159531 ], [ 30.4202129, 59.7159271 ], [ 30.4204243, 59.7158457 ], [ 30.4205429, 59.7158619 ], [ 30.4206207, 59.7158618 ], [ 30.420714, 59.7158523 ], [ 30.4207758, 59.7158346 ], [ 30.4207871, 59.7157957 ], [ 30.4208134, 59.7157582 ], [ 30.4208831, 59.7157032 ], [ 30.4209534, 59.7156683 ], [ 30.4210474, 59.7156216 ], [ 30.4211531, 59.7155811 ], [ 30.4213743, 59.7155533 ], [ 30.4214703, 59.7155413 ], [ 30.4237554, 59.7147978 ], [ 30.4237698, 59.714793 ], [ 30.4241609, 59.7146619 ], [ 30.4248491, 59.7144349 ], [ 30.4256852, 59.7141591 ], [ 30.4262916, 59.7139562 ], [ 30.4266022, 59.7138458 ], [ 30.4267658, 59.7137872 ], [ 30.427177, 59.7136527 ], [ 30.4272924, 59.713615 ], [ 30.4275893, 59.7135205 ], [ 30.4283006, 59.7132982 ], [ 30.4290239, 59.7130568 ], [ 30.4294956, 59.7129117 ], [ 30.4303097, 59.712694 ], [ 30.4327201, 59.7125907 ], [ 30.4342693, 59.7125246 ], [ 30.4343454, 59.7125491 ], [ 30.4357874, 59.7095956 ], [ 30.4363436, 59.7084314 ], [ 30.4372863, 59.7062325 ], [ 30.4375653, 59.7053339 ], [ 30.4377364, 59.7045667 ], [ 30.4378499, 59.7032492 ], [ 30.4381022, 59.700095 ], [ 30.438182, 59.6993916 ], [ 30.4381907, 59.6992907 ], [ 30.4382054, 59.69914 ], [ 30.4381981, 59.6988518 ], [ 30.4381707, 59.6985909 ], [ 30.4381188, 59.6983195 ], [ 30.4380177, 59.6979939 ], [ 30.4378288, 59.697565 ], [ 30.4377714, 59.6974446 ], [ 30.4376266, 59.6972272 ], [ 30.4370776, 59.6965241 ], [ 30.4369859, 59.6963949 ], [ 30.436686, 59.6962255 ], [ 30.4366062, 59.6962696 ], [ 30.4362005, 59.6965612 ], [ 30.4359913, 59.6966938 ], [ 30.4357641, 59.6968316 ], [ 30.4354441, 59.6969293 ], [ 30.4346126, 59.6971621 ], [ 30.4334271, 59.6974084 ], [ 30.4324776, 59.6975383 ], [ 30.4311819, 59.6976843 ], [ 30.4309085, 59.6977007 ], [ 30.4305732, 59.6976899 ], [ 30.4299107, 59.6976452 ], [ 30.4296028, 59.6975891 ], [ 30.4295155, 59.6975407 ], [ 30.4293523, 59.6974102 ], [ 30.4291651, 59.6972446 ], [ 30.4289487, 59.697009 ], [ 30.4287975, 59.6968627 ], [ 30.4286882, 59.696813 ], [ 30.4285919, 59.6967617 ], [ 30.4271998, 59.6963868 ], [ 30.425395, 59.6980692 ], [ 30.4253625, 59.6980998 ], [ 30.4240897, 59.699286 ], [ 30.4234121, 59.6999176 ], [ 30.4222626, 59.7009935 ], [ 30.4219032, 59.7013141 ], [ 30.4216072, 59.7015866 ], [ 30.4212025, 59.7019664 ], [ 30.421152, 59.7020176 ], [ 30.4211224, 59.7020786 ], [ 30.4211111, 59.702158 ], [ 30.4211245, 59.7022644 ], [ 30.4211108, 59.7023806 ], [ 30.4210956, 59.7024457 ], [ 30.4210573, 59.7025139 ], [ 30.420976, 59.702604 ], [ 30.4208218, 59.7027312 ], [ 30.4206881, 59.70281 ], [ 30.4204863, 59.7028882 ], [ 30.4201591, 59.703 ], [ 30.4200744, 59.7030372 ], [ 30.4200006, 59.7031007 ], [ 30.4196718, 59.7034663 ], [ 30.419381, 59.7037886 ], [ 30.4193455, 59.7038278 ], [ 30.4188045, 59.7044256 ], [ 30.4181862, 59.7051219 ], [ 30.4178445, 59.7055061 ], [ 30.4173804, 59.7060279 ], [ 30.4168636, 59.7066034 ], [ 30.4167405, 59.7067391 ], [ 30.4156685, 59.7079168 ], [ 30.4154168, 59.7081822 ], [ 30.4149711, 59.7085677 ], [ 30.4148524, 59.7086703 ], [ 30.4146697, 59.7088298 ], [ 30.4142373, 59.7091884 ], [ 30.4142231, 59.7092002 ], [ 30.4136304, 59.7097051 ], [ 30.4132145, 59.7100594 ], [ 30.4124137, 59.7107583 ], [ 30.4116703, 59.7114027 ], [ 30.4111272, 59.7118597 ], [ 30.4110852, 59.711895 ] ] ] } },
{ "type": "Feature", "properties": { }, "geometry": { "type": "Polygon", "coordinates": [ [ [ 30.3569801, 59.7278531 ], [ 30.3571908, 59.7279672 ], [ 30.3573033, 59.7280282 ], [ 30.3574374, 59.7281418 ], [ 30.35753, 59.7282418 ], [ 30.3575984, 59.7283395 ], [ 30.3576178, 59.728403 ], [ 30.3576353, 59.7284568 ], [ 30.3576456, 59.728483 ], [ 30.3576684, 59.7285115 ], [ 30.3578156, 59.7285589 ], [ 30.3580785, 59.7285839 ], [ 30.3581201, 59.7284203 ], [ 30.3589985, 59.7282263 ], [ 30.359197, 59.7281431 ], [ 30.3594089, 59.7279768 ], [ 30.3596194, 59.727868 ], [ 30.360121, 59.7276996 ], [ 30.360243, 59.727678 ], [ 30.3606728, 59.7276594 ], [ 30.3612294, 59.727698 ], [ 30.3613146, 59.7277385 ], [ 30.3622976, 59.7278889 ], [ 30.3628193, 59.7278896 ], [ 30.36328, 59.7277348 ], [ 30.3633101, 59.727675 ], [ 30.3633698, 59.7276391 ], [ 30.3634174, 59.7276239 ], [ 30.3634389, 59.7276023 ], [ 30.3634872, 59.7275725 ], [ 30.3637534, 59.7273309 ], [ 30.364431, 59.7271849 ], [ 30.3645775, 59.7271534 ], [ 30.3646338, 59.7271514 ], [ 30.3646915, 59.7271601 ], [ 30.3648182, 59.727154 ], [ 30.3650147, 59.727128 ], [ 30.3653499, 59.7271507 ], [ 30.3654586, 59.7271372 ], [ 30.3655927, 59.7270445 ], [ 30.3656946, 59.7270344 ], [ 30.3658006, 59.7269337 ], [ 30.3659213, 59.7268606 ], [ 30.3661392, 59.7267805 ], [ 30.3664047, 59.7267271 ], [ 30.3667662, 59.7266402 ], [ 30.3668842, 59.7265818 ], [ 30.3670002, 59.7265138 ], [ 30.367033, 59.726456 ], [ 30.367076, 59.7264394 ], [ 30.3672194, 59.7264019 ], [ 30.3672737, 59.7263776 ], [ 30.3673314, 59.7263691 ], [ 30.367371, 59.7263576 ], [ 30.3673965, 59.7263269 ], [ 30.3674508, 59.7263218 ], [ 30.3675254, 59.7263006 ], [ 30.367591, 59.7262819 ], [ 30.3678954, 59.7261954 ], [ 30.3680201, 59.7262197 ], [ 30.3680919, 59.7262126 ], [ 30.3687175, 59.7261507 ], [ 30.3686933, 59.7260499 ], [ 30.3687514, 59.7260464 ], [ 30.3687494, 59.7260385 ], [ 30.3688269, 59.7260337 ], [ 30.3689017, 59.7260291 ], [ 30.3689036, 59.7260372 ], [ 30.3689613, 59.7260336 ], [ 30.3689857, 59.7261335 ], [ 30.369382, 59.7260983 ], [ 30.3696143, 59.7259849 ], [ 30.3713843, 59.7252395 ], [ 30.372838, 59.7263241 ], [ 30.372836, 59.7263251 ], [ 30.3740159, 59.7272743 ], [ 30.3740395, 59.7272988 ], [ 30.3743577, 59.7275375 ], [ 30.3759573, 59.7287585 ], [ 30.3764874, 59.7290874 ], [ 30.3767842, 59.7292282 ], [ 30.3769371, 59.7292863 ], [ 30.3770914, 59.7293299 ], [ 30.3777057, 59.729459 ], [ 30.3789444, 59.7296654 ], [ 30.3801222, 59.7298353 ], [ 30.3807529, 59.7298893 ], [ 30.383238, 59.7299538 ], [ 30.3853571, 59.7298912 ], [ 30.3863651, 59.7296879 ], [ 30.3878993, 59.7292971 ], [ 30.3891706, 59.7289618 ], [ 30.3894453, 59.7288806 ], [ 30.3928764, 59.7278601 ], [ 30.3942104, 59.7288576 ], [ 30.3945187, 59.72853 ], [ 30.3945525, 59.7284616 ], [ 30.3946558, 59.7275341 ], [ 30.3946623, 59.7274284 ], [ 30.3946977, 59.7272968 ], [ 30.3947865, 59.7272023 ], [ 30.3949393, 59.7271174 ], [ 30.3951248, 59.7270455 ], [ 30.3977024, 59.7261752 ], [ 30.3984815, 59.7258771 ], [ 30.3986484, 59.7257859 ], [ 30.3987818, 59.7257113 ], [ 30.3989083, 59.7256286 ], [ 30.399, 59.7255626 ], [ 30.3991672, 59.7254283 ], [ 30.3992625, 59.7253426 ], [ 30.3993563, 59.725251 ], [ 30.3994092, 59.7251863 ], [ 30.3994612, 59.7251232 ], [ 30.3994984, 59.7250544 ], [ 30.3995533, 59.7249629 ], [ 30.3996302, 59.7248036 ], [ 30.3996963, 59.7245371 ], [ 30.3996989, 59.7245267 ], [ 30.3997028, 59.724513 ], [ 30.3997031, 59.7244991 ], [ 30.399706, 59.7244467 ], [ 30.3997036, 59.7243689 ], [ 30.3996929, 59.7242894 ], [ 30.3996786, 59.7242302 ], [ 30.3996613, 59.7241636 ], [ 30.3996448, 59.724107 ], [ 30.3996379, 59.7240888 ], [ 30.3996195, 59.7240405 ], [ 30.3995993, 59.7239926 ], [ 30.39956, 59.723913 ], [ 30.3995417, 59.7238793 ], [ 30.3995032, 59.7238181 ], [ 30.3994421, 59.7237429 ], [ 30.3993721, 59.7236604 ], [ 30.3993101, 59.7235962 ], [ 30.3992666, 59.7235506 ], [ 30.3992267, 59.7235129 ], [ 30.3991787, 59.7234675 ], [ 30.3991084, 59.7234044 ], [ 30.3990223, 59.7233391 ], [ 30.3989443, 59.7232849 ], [ 30.3988551, 59.7232275 ], [ 30.3987677, 59.7231716 ], [ 30.3986791, 59.7231216 ], [ 30.3985882, 59.7230758 ], [ 30.3985022, 59.7230326 ], [ 30.3983621, 59.7229688 ], [ 30.3982292, 59.7229102 ], [ 30.3981423, 59.7228725 ], [ 30.3980659, 59.7228427 ], [ 30.3980103, 59.7228239 ], [ 30.3977726, 59.7227561 ], [ 30.3977058, 59.7227407 ], [ 30.3974665, 59.7226865 ], [ 30.3973694, 59.7226685 ], [ 30.397281, 59.7226451 ], [ 30.3971, 59.7225956 ], [ 30.3967404, 59.7224914 ], [ 30.3966308, 59.7224575 ], [ 30.396507, 59.722417 ], [ 30.3963476, 59.7223575 ], [ 30.3962275, 59.7223066 ], [ 30.3961336, 59.7222628 ], [ 30.3960726, 59.7222292 ], [ 30.3960227, 59.7221965 ], [ 30.3959733, 59.7221589 ], [ 30.3959211, 59.7221126 ], [ 30.3958791, 59.7220647 ], [ 30.3958367, 59.7220131 ], [ 30.3957968, 59.7219537 ], [ 30.3957615, 59.7219023 ], [ 30.3957028, 59.72181 ], [ 30.3956496, 59.7217928 ], [ 30.39565, 59.7217672 ], [ 30.3956234, 59.7217104 ], [ 30.3955995, 59.7216405 ], [ 30.3955876, 59.7215442 ], [ 30.3955697, 59.7213072 ], [ 30.3955552, 59.7212767 ], [ 30.3955035, 59.721247 ], [ 30.3954534, 59.7212346 ], [ 30.3953925, 59.7212329 ], [ 30.3953911, 59.7212206 ], [ 30.3953868, 59.7212091 ], [ 30.3953815, 59.7211815 ], [ 30.3953716, 59.7211523 ], [ 30.3953682, 59.7211423 ], [ 30.3953688, 59.7211313 ], [ 30.3954109, 59.7211288 ], [ 30.3954465, 59.7211183 ], [ 30.3954845, 59.7210978 ], [ 30.3955188, 59.7210739 ], [ 30.3955545, 59.7210436 ], [ 30.3955736, 59.7210173 ], [ 30.3955968, 59.7209863 ], [ 30.3956087, 59.7209543 ], [ 30.3956354, 59.7205289 ], [ 30.3956314, 59.7205245 ], [ 30.3956254, 59.7205225 ], [ 30.3955695, 59.7205224 ], [ 30.3955724, 59.7204939 ], [ 30.3955751, 59.7204666 ], [ 30.3956274, 59.7204667 ], [ 30.3956341, 59.7204657 ], [ 30.3956375, 59.7204616 ], [ 30.3956568, 59.7202056 ], [ 30.3956927, 59.7197921 ], [ 30.3957111, 59.719542 ], [ 30.3958241, 59.7178735 ], [ 30.395817, 59.7178572 ], [ 30.3958061, 59.7178493 ], [ 30.3957856, 59.7178446 ], [ 30.395766, 59.7178454 ], [ 30.3957447, 59.7178496 ], [ 30.3957288, 59.7178559 ], [ 30.3957097, 59.7178501 ], [ 30.3956869, 59.7178431 ], [ 30.3956886, 59.7178331 ], [ 30.3956792, 59.7178218 ], [ 30.3956617, 59.717815 ], [ 30.3956398, 59.7178133 ], [ 30.3956112, 59.7178158 ], [ 30.3945953, 59.718127 ], [ 30.3944895, 59.718157 ], [ 30.3944063, 59.7181739 ], [ 30.3943301, 59.7181854 ], [ 30.3942521, 59.7181874 ], [ 30.3941877, 59.7181874 ], [ 30.39411, 59.7181793 ], [ 30.3940496, 59.7181583 ], [ 30.3939815, 59.718117 ], [ 30.3938073, 59.7179666 ], [ 30.3926815, 59.7170326 ], [ 30.3926602, 59.7170249 ], [ 30.3926347, 59.7170215 ], [ 30.3926042, 59.7170227 ], [ 30.3925871, 59.7170079 ], [ 30.3925576, 59.7169826 ], [ 30.3925108, 59.7169446 ], [ 30.3925194, 59.7169309 ], [ 30.3925221, 59.7169167 ], [ 30.3925182, 59.7169009 ], [ 30.3913218, 59.7159464 ], [ 30.3907743, 59.7154994 ], [ 30.3905394, 59.715308 ], [ 30.3897907, 59.7147255 ], [ 30.3896642, 59.7146849 ], [ 30.3894791, 59.7146501 ], [ 30.3891026, 59.7145812 ], [ 30.3889527, 59.7145533 ], [ 30.3878175, 59.7143231 ], [ 30.3862528, 59.7140409 ], [ 30.3833875, 59.7134563 ], [ 30.3834814, 59.7133677 ], [ 30.3831086, 59.7132789 ], [ 30.3827226, 59.7131821 ], [ 30.3826743, 59.713109 ], [ 30.3803341, 59.7126374 ], [ 30.3800269, 59.7125862 ], [ 30.3786805, 59.7123204 ], [ 30.3786594, 59.7123413 ], [ 30.378598, 59.712422 ], [ 30.3785713, 59.7124503 ], [ 30.3783364, 59.7125138 ], [ 30.3782889, 59.7125291 ], [ 30.3763847, 59.7141365 ], [ 30.3761966, 59.7143003 ], [ 30.3761253, 59.7143214 ], [ 30.3746912, 59.7147435 ], [ 30.374421, 59.7149172 ], [ 30.3732281, 59.7156954 ], [ 30.3727516, 59.7160067 ], [ 30.3725946, 59.7161092 ], [ 30.3725249, 59.7161282 ], [ 30.3722193, 59.7163458 ], [ 30.3721708, 59.7163804 ], [ 30.3716631, 59.7167308 ], [ 30.369823, 59.7179739 ], [ 30.3691892, 59.718454 ], [ 30.3683647, 59.7190784 ], [ 30.3674832, 59.7197514 ], [ 30.3668996, 59.7201962 ], [ 30.3667782, 59.7202936 ], [ 30.3667086, 59.7203417 ], [ 30.3666074, 59.7204117 ], [ 30.3665825, 59.7204039 ], [ 30.3662839, 59.7206217 ], [ 30.3662706, 59.7206824 ], [ 30.3660151, 59.7208781 ], [ 30.365813, 59.7210104 ], [ 30.3656745, 59.721101 ], [ 30.3656537, 59.7211173 ], [ 30.3646418, 59.7218897 ], [ 30.3630808, 59.723098 ], [ 30.3609097, 59.7247436 ], [ 30.3602797, 59.7252189 ], [ 30.3602748, 59.7252226 ], [ 30.3602578, 59.725236 ], [ 30.3602256, 59.7252468 ], [ 30.3596154, 59.7257444 ], [ 30.358934, 59.7262458 ], [ 30.3582072, 59.7268005 ], [ 30.3582193, 59.7268336 ], [ 30.3579658, 59.7270202 ], [ 30.3578644, 59.7270957 ], [ 30.3574564, 59.7273947 ], [ 30.3574219, 59.72742 ], [ 30.3571746, 59.7275996 ], [ 30.3572081, 59.7276513 ], [ 30.3571751, 59.7276863 ], [ 30.3571583, 59.7277067 ], [ 30.3571128, 59.7277462 ], [ 30.3569801, 59.7278531 ] ] ] } },
{ "type": "Feature", "properties": { }, "geometry": { "type": "MultiPolygon", "coordinates": [ [ [ [ 30.3751229, 59.7075409 ], [ 30.3753894, 59.707362 ], [ 30.3754579, 59.7071245 ], [ 30.3762183, 59.7067 ], [ 30.3763633, 59.7066191 ], [ 30.3764035, 59.7066272 ], [ 30.3765886, 59.7065115 ], [ 30.3749235, 59.705655 ], [ 30.3736119, 59.7064533 ], [ 30.3728995, 59.7068869 ], [ 30.3751229, 59.7075409 ] ] ], [ [ [ 30.3763554, 59.7080563 ], [ 30.3779186, 59.7084486 ], [ 30.3794203, 59.7088296 ], [ 30.3795739, 59.708863 ], [ 30.3814809, 59.7092911 ], [ 30.3819851, 59.7093954 ], [ 30.382058, 59.7094614 ], [ 30.3820672, 59.7095711 ], [ 30.3820936, 59.7097072 ], [ 30.3813106, 59.7097922 ], [ 30.3811658, 59.7098295 ], [ 30.3809848, 59.7098749 ], [ 30.3807922, 59.7099536 ], [ 30.3806636, 59.7100252 ], [ 30.3805859, 59.7100969 ], [ 30.3804616, 59.7102641 ], [ 30.3801908, 59.7105003 ], [ 30.3801, 59.7105689 ], [ 30.3800137, 59.710624 ], [ 30.3793616, 59.7109518 ], [ 30.3792251, 59.7110204 ], [ 30.3789879, 59.7111869 ], [ 30.378912, 59.7112888 ], [ 30.3786187, 59.7118942 ], [ 30.3783949, 59.7120983 ], [ 30.3783372, 59.712152 ], [ 30.3783052, 59.7121992 ], [ 30.3783409, 59.7122191 ], [ 30.3784522, 59.7122628 ], [ 30.378527, 59.7122912 ], [ 30.3786594, 59.7123413 ], [ 30.3786805, 59.7123204 ], [ 30.3800269, 59.7125862 ], [ 30.3803341, 59.7126374 ], [ 30.3826743, 59.713109 ], [ 30.3827226, 59.7131821 ], [ 30.3831086, 59.7132789 ], [ 30.3834814, 59.7133677 ], [ 30.3833875, 59.7134563 ], [ 30.3862528, 59.7140409 ], [ 30.3878175, 59.7143231 ], [ 30.3889527, 59.7145533 ], [ 30.3891026, 59.7145812 ], [ 30.3894791, 59.7146501 ], [ 30.3896642, 59.7146849 ], [ 30.3897907, 59.7147255 ], [ 30.3905394, 59.715308 ], [ 30.3907743, 59.7154994 ], [ 30.3913218, 59.7159464 ], [ 30.3925182, 59.7169009 ], [ 30.3925221, 59.7169167 ], [ 30.3925194, 59.7169309 ], [ 30.3925108, 59.7169446 ], [ 30.3925576, 59.7169826 ], [ 30.3925871, 59.7170079 ], [ 30.3926042, 59.7170227 ], [ 30.3926347, 59.7170215 ], [ 30.3926602, 59.7170249 ], [ 30.3926815, 59.7170326 ], [ 30.3938073, 59.7179666 ], [ 30.3939815, 59.718117 ], [ 30.3940496, 59.7181583 ], [ 30.39411, 59.7181793 ], [ 30.3941877, 59.7181874 ], [ 30.3942521, 59.7181874 ], [ 30.3943301, 59.7181854 ], [ 30.3944063, 59.7181739 ], [ 30.3944895, 59.718157 ], [ 30.3945953, 59.718127 ], [ 30.3956112, 59.7178158 ], [ 30.3956398, 59.7178133 ], [ 30.3956617, 59.717815 ], [ 30.3956792, 59.7178218 ], [ 30.3956886, 59.7178331 ], [ 30.3956869, 59.7178431 ], [ 30.3957097, 59.7178501 ], [ 30.3957288, 59.7178559 ], [ 30.3957447, 59.7178496 ], [ 30.395766, 59.7178454 ], [ 30.3957856, 59.7178446 ], [ 30.3958061, 59.7178493 ], [ 30.395817, 59.7178572 ], [ 30.3958241, 59.7178735 ], [ 30.3957111, 59.719542 ], [ 30.3956927, 59.7197921 ], [ 30.3956568, 59.7202056 ], [ 30.3956375, 59.7204616 ], [ 30.3956341, 59.7204657 ], [ 30.3956274, 59.7204667 ], [ 30.3955751, 59.7204666 ], [ 30.3955724, 59.7204939 ], [ 30.3955695, 59.7205224 ], [ 30.3956254, 59.7205225 ], [ 30.3956314, 59.7205245 ], [ 30.3956354, 59.7205289 ], [ 30.3956087, 59.7209543 ], [ 30.3955968, 59.7209863 ], [ 30.3955736, 59.7210173 ], [ 30.3955545, 59.7210436 ], [ 30.3955188, 59.7210739 ], [ 30.3954845, 59.7210978 ], [ 30.3954465, 59.7211183 ], [ 30.3954109, 59.7211288 ], [ 30.3953688, 59.7211313 ], [ 30.3953682, 59.7211423 ], [ 30.3953716, 59.7211523 ], [ 30.3953815, 59.7211815 ], [ 30.3953868, 59.7212091 ], [ 30.3953911, 59.7212206 ], [ 30.3953925, 59.7212329 ], [ 30.3954534, 59.7212346 ], [ 30.3955035, 59.721247 ], [ 30.3955552, 59.7212767 ], [ 30.3955697, 59.7213072 ], [ 30.3955876, 59.7215442 ], [ 30.3955995, 59.7216405 ], [ 30.3956234, 59.7217104 ], [ 30.39565, 59.7217672 ], [ 30.3956496, 59.7217928 ], [ 30.3957028, 59.72181 ], [ 30.3957615, 59.7219023 ], [ 30.3957968, 59.7219537 ], [ 30.3958367, 59.7220131 ], [ 30.3958791, 59.7220647 ], [ 30.3959211, 59.7221126 ], [ 30.3959733, 59.7221589 ], [ 30.3960227, 59.7221965 ], [ 30.3960726, 59.7222292 ], [ 30.3961336, 59.7222628 ], [ 30.3962275, 59.7223066 ], [ 30.3963476, 59.7223575 ], [ 30.396507, 59.722417 ], [ 30.3966308, 59.7224575 ], [ 30.3967404, 59.7224914 ], [ 30.3971, 59.7225956 ], [ 30.397281, 59.7226451 ], [ 30.3973694, 59.7226685 ], [ 30.3974665, 59.7226865 ], [ 30.3977058, 59.7227407 ], [ 30.3977726, 59.7227561 ], [ 30.3980103, 59.7228239 ], [ 30.3980659, 59.7228427 ], [ 30.3981423, 59.7228725 ], [ 30.3982292, 59.7229102 ], [ 30.3983621, 59.7229688 ], [ 30.3985022, 59.7230326 ], [ 30.3985882, 59.7230758 ], [ 30.3986791, 59.7231216 ], [ 30.3987677, 59.7231716 ], [ 30.3988551, 59.7232275 ], [ 30.3989443, 59.7232849 ], [ 30.3990223, 59.7233391 ], [ 30.3991084, 59.7234044 ], [ 30.3991787, 59.7234675 ], [ 30.3992267, 59.7235129 ], [ 30.3992666, 59.7235506 ], [ 30.3993101, 59.7235962 ], [ 30.3993721, 59.7236604 ], [ 30.3994421, 59.7237429 ], [ 30.3995032, 59.7238181 ], [ 30.3995417, 59.7238793 ], [ 30.39956, 59.723913 ], [ 30.3995993, 59.7239926 ], [ 30.3996195, 59.7240405 ], [ 30.3996379, 59.7240888 ], [ 30.3996448, 59.724107 ], [ 30.3996613, 59.7241636 ], [ 30.3996786, 59.7242302 ], [ 30.3996929, 59.7242894 ], [ 30.3997036, 59.7243689 ], [ 30.399706, 59.7244467 ], [ 30.3997031, 59.7244991 ], [ 30.3997028, 59.724513 ], [ 30.3996989, 59.7245267 ], [ 30.3996963, 59.7245371 ], [ 30.3996302, 59.7248036 ], [ 30.3995533, 59.7249629 ], [ 30.3994984, 59.7250544 ], [ 30.3994612, 59.7251232 ], [ 30.3994092, 59.7251863 ], [ 30.3993563, 59.725251 ], [ 30.3992625, 59.7253426 ], [ 30.3991672, 59.7254283 ], [ 30.399, 59.7255626 ], [ 30.3989083, 59.7256286 ], [ 30.3987818, 59.7257113 ], [ 30.3986484, 59.7257859 ], [ 30.3984815, 59.7258771 ], [ 30.3977024, 59.7261752 ], [ 30.3951248, 59.7270455 ], [ 30.3949393, 59.7271174 ], [ 30.3947865, 59.7272023 ], [ 30.3946977, 59.7272968 ], [ 30.3946623, 59.7274284 ], [ 30.3946558, 59.7275341 ], [ 30.3945525, 59.7284616 ], [ 30.3945187, 59.72853 ], [ 30.3942104, 59.7288576 ], [ 30.3940708, 59.729006 ], [ 30.3939721, 59.7293124 ], [ 30.3939538, 59.72952 ], [ 30.3939767, 59.7297183 ], [ 30.3940608, 59.7298668 ], [ 30.3942883, 59.7300908 ], [ 30.3943795, 59.7301287 ], [ 30.3946611, 59.7301368 ], [ 30.394751, 59.7301195 ], [ 30.3951662, 59.7296993 ], [ 30.3952005, 59.7292566 ], [ 30.39527, 59.7292079 ], [ 30.3957472, 59.7290164 ], [ 30.3978096, 59.7283441 ], [ 30.4015284, 59.7271318 ], [ 30.4017926, 59.7270228 ], [ 30.4056655, 59.7257635 ], [ 30.4058536, 59.7257106 ], [ 30.405907, 59.7257539 ], [ 30.4059917, 59.7257265 ], [ 30.4060278, 59.7257543 ], [ 30.4060837, 59.7257974 ], [ 30.4061278, 59.7258316 ], [ 30.4063827, 59.7260452 ], [ 30.4068907, 59.7264719 ], [ 30.4069205, 59.7264631 ], [ 30.4069443, 59.7264807 ], [ 30.4069712, 59.7265013 ], [ 30.4069136, 59.7265187 ], [ 30.4073454, 59.7268377 ], [ 30.4077518, 59.7271378 ], [ 30.4094407, 59.7265686 ], [ 30.4112761, 59.7259684 ], [ 30.4104536, 59.7253147 ], [ 30.4114571, 59.7249581 ], [ 30.4120177, 59.7246538 ], [ 30.4127821, 59.7244131 ], [ 30.4123811, 59.7240886 ], [ 30.4135754, 59.7236724 ], [ 30.4140401, 59.7240473 ], [ 30.4144407, 59.7239301 ], [ 30.4167121, 59.7231693 ], [ 30.4169524, 59.7233737 ], [ 30.4164236, 59.7235273 ], [ 30.4165195, 59.7236095 ], [ 30.4162055, 59.7237072 ], [ 30.417595, 59.7247838 ], [ 30.4190786, 59.7259537 ], [ 30.419131, 59.7260058 ], [ 30.4216304, 59.7251806 ], [ 30.4227401, 59.7248132 ], [ 30.4227912, 59.7247963 ], [ 30.4233257, 59.7246201 ], [ 30.4237793, 59.7244705 ], [ 30.4241452, 59.7243505 ], [ 30.424553, 59.7242168 ], [ 30.4257114, 59.723837 ], [ 30.4260228, 59.7237321 ], [ 30.4261239, 59.7238102 ], [ 30.4261959, 59.7237865 ], [ 30.4262957, 59.7238625 ], [ 30.4265576, 59.7240605 ], [ 30.4267109, 59.72418 ], [ 30.4267349, 59.7241987 ], [ 30.4267953, 59.7242576 ], [ 30.4272339, 59.7244314 ], [ 30.4274419, 59.7245518 ], [ 30.4279414, 59.7246156 ], [ 30.4280438, 59.7246281 ], [ 30.4292957, 59.7248156 ], [ 30.4294641, 59.7245896 ], [ 30.4295017, 59.7245933 ], [ 30.4296083, 59.7244141 ], [ 30.4297424, 59.724167 ], [ 30.429834, 59.7239854 ], [ 30.429763, 59.7239746 ], [ 30.4300006, 59.723477 ], [ 30.4300698, 59.7233245 ], [ 30.4302715, 59.7228695 ], [ 30.4303734, 59.72257 ], [ 30.4304163, 59.722432 ], [ 30.4306637, 59.7219036 ], [ 30.4308502, 59.7215419 ], [ 30.4308089, 59.7215345 ], [ 30.4306468, 59.7215062 ], [ 30.4305555, 59.7214903 ], [ 30.4303329, 59.7214514 ], [ 30.429872, 59.7213641 ], [ 30.4297251, 59.7213299 ], [ 30.4295307, 59.7211967 ], [ 30.4271933, 59.7207486 ], [ 30.4271217, 59.7207358 ], [ 30.4264198, 59.7206012 ], [ 30.4260919, 59.7203321 ], [ 30.4262244, 59.7202937 ], [ 30.4261628, 59.7202516 ], [ 30.4272281, 59.7199042 ], [ 30.4276236, 59.7197752 ], [ 30.4279877, 59.7196565 ], [ 30.4281912, 59.7195898 ], [ 30.4280842, 59.7195068 ], [ 30.4288086, 59.7192671 ], [ 30.4292516, 59.7191325 ], [ 30.4294818, 59.7190636 ], [ 30.429435, 59.7190274 ], [ 30.4294023, 59.7190036 ], [ 30.4291632, 59.7188251 ], [ 30.4293063, 59.7187782 ], [ 30.4290783, 59.7185997 ], [ 30.4287548, 59.7186974 ], [ 30.4284361, 59.7184531 ], [ 30.4283566, 59.7184792 ], [ 30.4273448, 59.7188108 ], [ 30.4269645, 59.7189328 ], [ 30.4269345, 59.7189424 ], [ 30.4263373, 59.7191354 ], [ 30.4252108, 59.7194995 ], [ 30.4249939, 59.7193638 ], [ 30.4229642, 59.7178072 ], [ 30.4228392, 59.7176325 ], [ 30.4225803, 59.7174359 ], [ 30.4217486, 59.7168042 ], [ 30.4211078, 59.7163229 ], [ 30.4221645, 59.7159797 ], [ 30.4223249, 59.7160993 ], [ 30.4239463, 59.7155788 ], [ 30.4240407, 59.7155891 ], [ 30.4241292, 59.7155925 ], [ 30.4242011, 59.7155843 ], [ 30.4245329, 59.715483 ], [ 30.4245235, 59.7153551 ], [ 30.424459, 59.7153018 ], [ 30.4244246, 59.715278 ], [ 30.424148, 59.7150623 ], [ 30.4254159, 59.7146237 ], [ 30.4255213, 59.7146051 ], [ 30.4264225, 59.7143075 ], [ 30.4266498, 59.7142098 ], [ 30.427083, 59.7140674 ], [ 30.4271169, 59.7140585 ], [ 30.4276017, 59.7138998 ], [ 30.428121, 59.7137353 ], [ 30.4301025, 59.7130908 ], [ 30.4301702, 59.7130967 ], [ 30.430389, 59.713053 ], [ 30.4317788, 59.7129878 ], [ 30.432009, 59.712923 ], [ 30.4320121, 59.7129038 ], [ 30.4320239, 59.7128874 ], [ 30.4320439, 59.712878 ], [ 30.4321041, 59.7128682 ], [ 30.4340876, 59.7127643 ], [ 30.4341588, 59.7127643 ], [ 30.4341873, 59.7127029 ], [ 30.4342425, 59.7125733 ], [ 30.4343454, 59.7125491 ], [ 30.4342693, 59.7125246 ], [ 30.4327201, 59.7125907 ], [ 30.4303097, 59.712694 ], [ 30.4294956, 59.7129117 ], [ 30.4290239, 59.7130568 ], [ 30.4283006, 59.7132982 ], [ 30.4275893, 59.7135205 ], [ 30.4272924, 59.713615 ], [ 30.427177, 59.7136527 ], [ 30.4267658, 59.7137872 ], [ 30.4266022, 59.7138458 ], [ 30.4262916, 59.7139562 ], [ 30.4256852, 59.7141591 ], [ 30.4248491, 59.7144349 ], [ 30.4241609, 59.7146619 ], [ 30.4237698, 59.714793 ], [ 30.4237554, 59.7147978 ], [ 30.4214703, 59.7155413 ], [ 30.4213743, 59.7155533 ], [ 30.4211531, 59.7155811 ], [ 30.4210474, 59.7156216 ], [ 30.4209534, 59.7156683 ], [ 30.4208831, 59.7157032 ], [ 30.4208134, 59.7157582 ], [ 30.4207871, 59.7157957 ], [ 30.4207758, 59.7158346 ], [ 30.420714, 59.7158523 ], [ 30.4206207, 59.7158618 ], [ 30.4205429, 59.7158619 ], [ 30.4204243, 59.7158457 ], [ 30.4202129, 59.7159271 ], [ 30.4201479, 59.7159531 ], [ 30.4200055, 59.7158397 ], [ 30.4197103, 59.7156131 ], [ 30.4196791, 59.7155864 ], [ 30.4196405, 59.7155475 ], [ 30.4196224, 59.715508 ], [ 30.4196164, 59.7154704 ], [ 30.4196148, 59.7153868 ], [ 30.4196144, 59.7153139 ], [ 30.419605, 59.7151763 ], [ 30.4195842, 59.7150146 ], [ 30.4195473, 59.714881 ], [ 30.4194897, 59.7147187 ], [ 30.4194266, 59.7145699 ], [ 30.4193395, 59.7144086 ], [ 30.4192577, 59.7142869 ], [ 30.419139, 59.7141378 ], [ 30.4189485, 59.7139538 ], [ 30.4187903, 59.7138276 ], [ 30.4183446, 59.7135221 ], [ 30.4183285, 59.713511 ], [ 30.4182994, 59.7134937 ], [ 30.4182632, 59.7134722 ], [ 30.4182042, 59.7134371 ], [ 30.4179668, 59.7133177 ], [ 30.4177503, 59.7132264 ], [ 30.4174794, 59.713128 ], [ 30.417134, 59.7130147 ], [ 30.4168443, 59.7129291 ], [ 30.4165151, 59.7128466 ], [ 30.4161134, 59.7127681 ], [ 30.4153061, 59.7126292 ], [ 30.4142674, 59.7124517 ], [ 30.4119964, 59.7120639 ], [ 30.4111473, 59.7119127 ], [ 30.4110852, 59.711895 ], [ 30.4111272, 59.7118597 ], [ 30.4116703, 59.7114027 ], [ 30.4124137, 59.7107583 ], [ 30.4132145, 59.7100594 ], [ 30.4136304, 59.7097051 ], [ 30.4142231, 59.7092002 ], [ 30.4142373, 59.7091884 ], [ 30.4146697, 59.7088298 ], [ 30.4148524, 59.7086703 ], [ 30.4149711, 59.7085677 ], [ 30.4154168, 59.7081822 ], [ 30.4156685, 59.7079168 ], [ 30.4167405, 59.7067391 ], [ 30.4168636, 59.7066034 ], [ 30.4173804, 59.7060279 ], [ 30.4178445, 59.7055061 ], [ 30.4181862, 59.7051219 ], [ 30.4188045, 59.7044256 ], [ 30.4193455, 59.7038278 ], [ 30.419381, 59.7037886 ], [ 30.4196718, 59.7034663 ], [ 30.4200006, 59.7031007 ], [ 30.4200744, 59.7030372 ], [ 30.4201591, 59.703 ], [ 30.4204863, 59.7028882 ], [ 30.4206881, 59.70281 ], [ 30.4208218, 59.7027312 ], [ 30.420976, 59.702604 ], [ 30.4210573, 59.7025139 ], [ 30.4210956, 59.7024457 ], [ 30.4211108, 59.7023806 ], [ 30.4211245, 59.7022644 ], [ 30.4211111, 59.702158 ], [ 30.4211224, 59.7020786 ], [ 30.421152, 59.7020176 ], [ 30.4212025, 59.7019664 ], [ 30.4216072, 59.7015866 ], [ 30.4219032, 59.7013141 ], [ 30.4222626, 59.7009935 ], [ 30.4234121, 59.6999176 ], [ 30.4240897, 59.699286 ], [ 30.4253625, 59.6980998 ], [ 30.425395, 59.6980692 ], [ 30.4271998, 59.6963868 ], [ 30.4285919, 59.6967617 ], [ 30.4286882, 59.696813 ], [ 30.4287975, 59.6968627 ], [ 30.4289487, 59.697009 ], [ 30.4291651, 59.6972446 ], [ 30.4293523, 59.6974102 ], [ 30.4295155, 59.6975407 ], [ 30.4296028, 59.6975891 ], [ 30.4299107, 59.6976452 ], [ 30.4305732, 59.6976899 ], [ 30.4309085, 59.6977007 ], [ 30.4311819, 59.6976843 ], [ 30.4324776, 59.6975383 ], [ 30.4334271, 59.6974084 ], [ 30.4346126, 59.6971621 ], [ 30.4354441, 59.6969293 ], [ 30.4357641, 59.6968316 ], [ 30.4359913, 59.6966938 ], [ 30.4362005, 59.6965612 ], [ 30.4366062, 59.6962696 ], [ 30.436686, 59.6962255 ], [ 30.4367706, 59.6961773 ], [ 30.4367814, 59.6961156 ], [ 30.4367369, 59.6960658 ], [ 30.4338446, 59.6944212 ], [ 30.4335488, 59.6942709 ], [ 30.4331924, 59.6940925 ], [ 30.4328528, 59.6938994 ], [ 30.4322311, 59.6935382 ], [ 30.4320907, 59.6934542 ], [ 30.4320045, 59.6934039 ], [ 30.43157, 59.6931371 ], [ 30.4315373, 59.6931286 ], [ 30.4315133, 59.6931224 ], [ 30.4304635, 59.6924782 ], [ 30.4279941, 59.6930944 ], [ 30.4258513, 59.6934124 ], [ 30.4251503, 59.693516 ], [ 30.4245264, 59.6936082 ], [ 30.4245746, 59.6936954 ], [ 30.4246912, 59.6936783 ], [ 30.4247006, 59.693695 ], [ 30.4247372, 59.6937604 ], [ 30.4247752, 59.6938281 ], [ 30.4247678, 59.6938678 ], [ 30.4247535, 59.6939448 ], [ 30.4247401, 59.6940187 ], [ 30.4247744, 59.6940815 ], [ 30.4249849, 59.6944664 ], [ 30.4250046, 59.694523 ], [ 30.4250088, 59.6945897 ], [ 30.4249842, 59.6946501 ], [ 30.4249543, 59.6947089 ], [ 30.4247964, 59.6949036 ], [ 30.4247865, 59.6949133 ], [ 30.4247639, 59.6949353 ], [ 30.4247402, 59.6949573 ], [ 30.4235031, 59.6961036 ], [ 30.4234808, 59.6961243 ], [ 30.4234563, 59.6961476 ], [ 30.4233729, 59.6962268 ], [ 30.4223934, 59.6971352 ], [ 30.4223686, 59.6971582 ], [ 30.4223454, 59.69718 ], [ 30.4211518, 59.6983008 ], [ 30.4211083, 59.6983417 ], [ 30.4210806, 59.6983685 ], [ 30.4210125, 59.6984346 ], [ 30.4209174, 59.6985222 ], [ 30.4204876, 59.6989236 ], [ 30.4204596, 59.6989498 ], [ 30.420436, 59.6989722 ], [ 30.4203118, 59.6990898 ], [ 30.420142, 59.6992492 ], [ 30.4197174, 59.699653 ], [ 30.4196286, 59.6997762 ], [ 30.4193946, 59.6999959 ], [ 30.4192274, 59.699955 ], [ 30.4189958, 59.6998941 ], [ 30.417992, 59.700684 ], [ 30.4177863, 59.7007858 ], [ 30.4176695, 59.7008705 ], [ 30.417187, 59.7012702 ], [ 30.4174096, 59.7013518 ], [ 30.417413, 59.7013664 ], [ 30.4174532, 59.7013806 ], [ 30.4173231, 59.7015122 ], [ 30.4174371, 59.7015792 ], [ 30.4167987, 59.7022422 ], [ 30.4166316, 59.7024157 ], [ 30.4162505, 59.7023372 ], [ 30.4158458, 59.7028358 ], [ 30.4182526, 59.7033418 ], [ 30.419198, 59.7035358 ], [ 30.4190794, 59.7037061 ], [ 30.4188947, 59.7039105 ], [ 30.4185605, 59.7042787 ], [ 30.4183659, 59.7044956 ], [ 30.4183522, 59.7045108 ], [ 30.4177035, 59.705225 ], [ 30.4170076, 59.7059977 ], [ 30.4169773, 59.7060313 ], [ 30.4168514, 59.7061746 ], [ 30.4165402, 59.7065289 ], [ 30.4163931, 59.7066882 ], [ 30.4162291, 59.7068657 ], [ 30.4161233, 59.7069802 ], [ 30.4158234, 59.7073223 ], [ 30.4156008, 59.7075761 ], [ 30.4155925, 59.7075861 ], [ 30.415557, 59.7076302 ], [ 30.4155176, 59.7076771 ], [ 30.415505, 59.7076883 ], [ 30.415234, 59.7079417 ], [ 30.4151791, 59.707993 ], [ 30.4150931, 59.7080708 ], [ 30.4149487, 59.7082015 ], [ 30.4148671, 59.7082754 ], [ 30.41482, 59.7083182 ], [ 30.4146278, 59.7084927 ], [ 30.4145583, 59.7085559 ], [ 30.4145408, 59.7085805 ], [ 30.4145049, 59.7086127 ], [ 30.4141884, 59.708561 ], [ 30.4136895, 59.7084791 ], [ 30.4135795, 59.708461 ], [ 30.4130356, 59.7083711 ], [ 30.412916, 59.7083517 ], [ 30.4122439, 59.7082448 ], [ 30.4117121, 59.7081589 ], [ 30.4115073, 59.7081258 ], [ 30.4092008, 59.7077557 ], [ 30.4091531, 59.7077268 ], [ 30.4091479, 59.7076844 ], [ 30.4090234, 59.7076629 ], [ 30.4089031, 59.7076441 ], [ 30.4088755, 59.7076734 ], [ 30.4088245, 59.7076903 ], [ 30.4087545, 59.707682 ], [ 30.4086185, 59.7076597 ], [ 30.4084164, 59.7076266 ], [ 30.4074995, 59.7074764 ], [ 30.4058392, 59.7072044 ], [ 30.4052823, 59.7071121 ], [ 30.4048207, 59.7070356 ], [ 30.4048561, 59.7070127 ], [ 30.4051559, 59.7066041 ], [ 30.4052387, 59.7064912 ], [ 30.4054259, 59.7062361 ], [ 30.4055562, 59.7060585 ], [ 30.4055911, 59.7060078 ], [ 30.405627, 59.7059557 ], [ 30.4056268, 59.7059355 ], [ 30.405813, 59.705679 ], [ 30.4059588, 59.7054824 ], [ 30.4060468, 59.7053636 ], [ 30.4063954, 59.7048889 ], [ 30.4067379, 59.7044187 ], [ 30.4069736, 59.7040971 ], [ 30.4070887, 59.7039396 ], [ 30.4071952, 59.7037937 ], [ 30.4072287, 59.703748 ], [ 30.4072348, 59.7037396 ], [ 30.4072482, 59.7037213 ], [ 30.4072627, 59.7037006 ], [ 30.407362, 59.7035584 ], [ 30.4074237, 59.7034701 ], [ 30.4074578, 59.7034212 ], [ 30.4075867, 59.7032366 ], [ 30.4076224, 59.7031855 ], [ 30.407709, 59.7030615 ], [ 30.407637, 59.703049 ], [ 30.4075703, 59.7030375 ], [ 30.4074215, 59.7030118 ], [ 30.4073579, 59.7030008 ], [ 30.4073132, 59.7029931 ], [ 30.4072782, 59.7029512 ], [ 30.4072194, 59.7029223 ], [ 30.4071154, 59.7029031 ], [ 30.4070631, 59.7028945 ], [ 30.4050585, 59.7025656 ], [ 30.4006172, 59.7018319 ], [ 30.4001275, 59.7017483 ], [ 30.3999245, 59.7017136 ], [ 30.3997112, 59.7016783 ], [ 30.3993658, 59.7016212 ], [ 30.3989616, 59.7015544 ], [ 30.3986309, 59.7014997 ], [ 30.3985749, 59.7014974 ], [ 30.3985344, 59.7015118 ], [ 30.3985113, 59.701542 ], [ 30.3984517, 59.7015305 ], [ 30.39838, 59.7015167 ], [ 30.3983039, 59.7015021 ], [ 30.3982819, 59.7014979 ], [ 30.3982891, 59.7014755 ], [ 30.3982798, 59.7014547 ], [ 30.398249, 59.7014373 ], [ 30.3981551, 59.7014203 ], [ 30.394683, 59.7008583 ], [ 30.3946448, 59.7008596 ], [ 30.3946122, 59.7008713 ], [ 30.3945688, 59.7009084 ], [ 30.3944853, 59.7010384 ], [ 30.3939999, 59.7018244 ], [ 30.393769, 59.7017725 ], [ 30.3934232, 59.7023141 ], [ 30.3932607, 59.7025684 ], [ 30.3927967, 59.7032951 ], [ 30.3927534, 59.7033121 ], [ 30.3926988, 59.7033124 ], [ 30.3926721, 59.7033596 ], [ 30.3926454, 59.7034068 ], [ 30.3926252, 59.7034413 ], [ 30.392605, 59.7034757 ], [ 30.3926249, 59.703511 ], [ 30.392633, 59.7035343 ], [ 30.392491, 59.7037552 ], [ 30.3923885, 59.7039146 ], [ 30.3918743, 59.7038254 ], [ 30.3914934, 59.7044789 ], [ 30.3919681, 59.7045682 ], [ 30.3917762, 59.7048668 ], [ 30.3915974, 59.7051448 ], [ 30.3915867, 59.7051614 ], [ 30.3915565, 59.7052084 ], [ 30.3915299, 59.705256 ], [ 30.3915004, 59.7053089 ], [ 30.3902301, 59.7050986 ], [ 30.3894475, 59.7064758 ], [ 30.384746, 59.7071798 ], [ 30.3843529, 59.7072686 ], [ 30.381875, 59.707586 ], [ 30.3815404, 59.706963 ], [ 30.3808191, 59.7072518 ], [ 30.3798447, 59.7076413 ], [ 30.3797563, 59.7075773 ], [ 30.3790465, 59.7071816 ], [ 30.3784639, 59.707498 ], [ 30.3783714, 59.7075711 ], [ 30.3775182, 59.7080177 ], [ 30.3774418, 59.7080319 ], [ 30.3773814, 59.7080238 ], [ 30.3764678, 59.7078293 ], [ 30.376322, 59.7078936 ], [ 30.3763554, 59.7080563 ] ] ] ] } },
{ "type": "Feature", "properties": { }, "geometry": { "type": "Polygon", "coordinates": [ [ [ 30.3422574, 59.7096469 ], [ 30.3423337, 59.709721 ], [ 30.3424829, 59.7098078 ], [ 30.3427823, 59.7099783 ], [ 30.3429142, 59.7101973 ], [ 30.3429785, 59.7103173 ], [ 30.3430186, 59.7103921 ], [ 30.3450528, 59.7121464 ], [ 30.3540086, 59.7198687 ], [ 30.3541093, 59.7199555 ], [ 30.3541177, 59.7199772 ], [ 30.3541224, 59.7199969 ], [ 30.3541263, 59.7202438 ], [ 30.3546412, 59.7245769 ], [ 30.3547935, 59.7258582 ], [ 30.3549196, 59.7266986 ], [ 30.3549855, 59.7268276 ], [ 30.3550493, 59.7269423 ], [ 30.3550331, 59.7271521 ], [ 30.3550091, 59.7273783 ], [ 30.3550133, 59.7277248 ], [ 30.3554486, 59.7276755 ], [ 30.3556755, 59.7276695 ], [ 30.3557835, 59.727668 ], [ 30.3561469, 59.72772 ], [ 30.3563419, 59.7275937 ], [ 30.3564879, 59.727657 ], [ 30.3568861, 59.7278257 ], [ 30.3569801, 59.7278531 ], [ 30.3571128, 59.7277462 ], [ 30.3571583, 59.7277067 ], [ 30.3571751, 59.7276863 ], [ 30.3572081, 59.7276513 ], [ 30.3571746, 59.7275996 ], [ 30.3574219, 59.72742 ], [ 30.3574564, 59.7273947 ], [ 30.3578644, 59.7270957 ], [ 30.3579658, 59.7270202 ], [ 30.3582193, 59.7268336 ], [ 30.3582072, 59.7268005 ], [ 30.358934, 59.7262458 ], [ 30.3596154, 59.7257444 ], [ 30.3602256, 59.7252468 ], [ 30.3602578, 59.725236 ], [ 30.3602748, 59.7252226 ], [ 30.3602797, 59.7252189 ], [ 30.3609097, 59.7247436 ], [ 30.3630808, 59.723098 ], [ 30.3646418, 59.7218897 ], [ 30.3656537, 59.7211173 ], [ 30.3656745, 59.721101 ], [ 30.365813, 59.7210104 ], [ 30.3660151, 59.7208781 ], [ 30.3662706, 59.7206824 ], [ 30.3662839, 59.7206217 ], [ 30.3665825, 59.7204039 ], [ 30.3666074, 59.7204117 ], [ 30.3667086, 59.7203417 ], [ 30.3667782, 59.7202936 ], [ 30.3668996, 59.7201962 ], [ 30.3674832, 59.7197514 ], [ 30.3683647, 59.7190784 ], [ 30.3691892, 59.718454 ], [ 30.369823, 59.7179739 ], [ 30.3716631, 59.7167308 ], [ 30.3721708, 59.7163804 ], [ 30.3722193, 59.7163458 ], [ 30.3725249, 59.7161282 ], [ 30.3725946, 59.7161092 ], [ 30.3727516, 59.7160067 ], [ 30.3732281, 59.7156954 ], [ 30.374421, 59.7149172 ], [ 30.3746912, 59.7147435 ], [ 30.3761253, 59.7143214 ], [ 30.3761966, 59.7143003 ], [ 30.3763847, 59.7141365 ], [ 30.3782889, 59.7125291 ], [ 30.3783364, 59.7125138 ], [ 30.3785713, 59.7124503 ], [ 30.378598, 59.712422 ], [ 30.3786594, 59.7123413 ], [ 30.378527, 59.7122912 ], [ 30.3784522, 59.7122628 ], [ 30.3783409, 59.7122191 ], [ 30.3783052, 59.7121992 ], [ 30.3783372, 59.712152 ], [ 30.3783949, 59.7120983 ], [ 30.3786187, 59.7118942 ], [ 30.378912, 59.7112888 ], [ 30.3789879, 59.7111869 ], [ 30.3792251, 59.7110204 ], [ 30.3793616, 59.7109518 ], [ 30.3800137, 59.710624 ], [ 30.3801, 59.7105689 ], [ 30.3801908, 59.7105003 ], [ 30.3804616, 59.7102641 ], [ 30.3805859, 59.7100969 ], [ 30.3806636, 59.7100252 ], [ 30.3807922, 59.7099536 ], [ 30.3809848, 59.7098749 ], [ 30.3811658, 59.7098295 ], [ 30.3813106, 59.7097922 ], [ 30.3820936, 59.7097072 ], [ 30.3820672, 59.7095711 ], [ 30.382058, 59.7094614 ], [ 30.3819851, 59.7093954 ], [ 30.3814809, 59.7092911 ], [ 30.3795739, 59.708863 ], [ 30.3794203, 59.7088296 ], [ 30.3779186, 59.7084486 ], [ 30.3763554, 59.7080563 ], [ 30.376322, 59.7078936 ], [ 30.3751229, 59.7075409 ], [ 30.3728995, 59.7068869 ], [ 30.3685025, 59.7061393 ], [ 30.3632551, 59.7053981 ], [ 30.3569679, 59.70451 ], [ 30.3570001, 59.7037348 ], [ 30.3553534, 59.7037222 ], [ 30.35449, 59.7037156 ], [ 30.3513126, 59.7036914 ], [ 30.3498042, 59.7037145 ], [ 30.349291, 59.7038416 ], [ 30.3491109, 59.7044516 ], [ 30.3471084, 59.70597 ], [ 30.3470168, 59.7060287 ], [ 30.3468602, 59.7061291 ], [ 30.3458592, 59.7067707 ], [ 30.3440839, 59.7063326 ], [ 30.3431378, 59.7074434 ], [ 30.3424055, 59.7083031 ], [ 30.3422191, 59.7086133 ], [ 30.3420074, 59.7089657 ], [ 30.3418967, 59.7092966 ], [ 30.3422574, 59.7096469 ] ] ] } },
{ "type": "Feature", "properties": { }, "geometry": { "type": "Polygon", "coordinates": [ [ [ 30.0775149, 59.5736159 ], [ 30.0779533, 59.5738267 ], [ 30.0783959, 59.5735692 ], [ 30.0806594, 59.5724986 ], [ 30.0807882, 59.5724347 ], [ 30.0818986, 59.5719199 ], [ 30.0819559, 59.5718905 ], [ 30.0820086, 59.5718615 ], [ 30.082942, 59.5714227 ], [ 30.0831016, 59.571366 ], [ 30.0842149, 59.5708965 ], [ 30.0842586, 59.570878 ], [ 30.0843828, 59.5709043 ], [ 30.0844805, 59.5709249 ], [ 30.0845599, 59.5709703 ], [ 30.0845343, 59.5710235 ], [ 30.0845698, 59.5710612 ], [ 30.0846804, 59.5710829 ], [ 30.0847691, 59.5711095 ], [ 30.0848375, 59.5711685 ], [ 30.0848259, 59.5712208 ], [ 30.0848803, 59.5712491 ], [ 30.0849961, 59.5712622 ], [ 30.0850871, 59.5712599 ], [ 30.0851693, 59.5713067 ], [ 30.0853244, 59.5713633 ], [ 30.08542, 59.5713951 ], [ 30.0857178, 59.5714542 ], [ 30.0859206, 59.5715253 ], [ 30.0861078, 59.5716255 ], [ 30.0862892, 59.5716976 ], [ 30.0864359, 59.5717211 ], [ 30.0865949, 59.5716977 ], [ 30.0867732, 59.5716026 ], [ 30.0869647, 59.5715245 ], [ 30.0870995, 59.5714736 ], [ 30.0871695, 59.5714337 ], [ 30.0873786, 59.5713422 ], [ 30.087585, 59.5712205 ], [ 30.0876656, 59.571177 ], [ 30.0877167, 59.571138 ], [ 30.0878371, 59.5710693 ], [ 30.0880012, 59.5710447 ], [ 30.0882434, 59.571077 ], [ 30.0919606, 59.5722944 ], [ 30.0928308, 59.5725788 ], [ 30.0929242, 59.5726118 ], [ 30.0930402, 59.572684 ], [ 30.0933297, 59.5726613 ], [ 30.0936492, 59.5727631 ], [ 30.0938001, 59.5728202 ], [ 30.0940254, 59.5729072 ], [ 30.0945189, 59.573024 ], [ 30.0947262, 59.5730651 ], [ 30.0948918, 59.5730589 ], [ 30.0950218, 59.5730036 ], [ 30.0951071, 59.5729048 ], [ 30.0951463, 59.5727973 ], [ 30.0950574, 59.5726603 ], [ 30.0947835, 59.5725667 ], [ 30.0943525, 59.5725262 ], [ 30.0941604, 59.5725067 ], [ 30.0940598, 59.572448 ], [ 30.0940214, 59.5723609 ], [ 30.0939855, 59.5722766 ], [ 30.0939938, 59.5721771 ], [ 30.0940799, 59.5721026 ], [ 30.0942397, 59.5720615 ], [ 30.09444, 59.5721175 ], [ 30.0945704, 59.5722337 ], [ 30.0946864, 59.5723013 ], [ 30.0948876, 59.5723394 ], [ 30.0951604, 59.5723281 ], [ 30.0954254, 59.5723502 ], [ 30.0957997, 59.5724243 ], [ 30.0961262, 59.5724689 ], [ 30.0963625, 59.5724755 ], [ 30.0966556, 59.5724688 ], [ 30.0969488, 59.5723713 ], [ 30.097073, 59.57222 ], [ 30.0971864, 59.5721284 ], [ 30.0973589, 59.5720375 ], [ 30.0974992, 59.5719933 ], [ 30.097662, 59.5719691 ], [ 30.0977579, 59.5719349 ], [ 30.097985, 59.571901 ], [ 30.0980621, 59.5719207 ], [ 30.1025873, 59.5727029 ], [ 30.1028562, 59.5727509 ], [ 30.1031791, 59.5727994 ], [ 30.1032045, 59.5727828 ], [ 30.1033175, 59.5727433 ], [ 30.1034442, 59.572688 ], [ 30.1034886, 59.5725974 ], [ 30.1034374, 59.5725377 ], [ 30.1032865, 59.5724416 ], [ 30.1033721, 59.572472 ], [ 30.1042645, 59.5726534 ], [ 30.1046155, 59.5727034 ], [ 30.1048495, 59.5727692 ], [ 30.1096764, 59.5740901 ], [ 30.112585, 59.5725292 ], [ 30.1127804, 59.5724699 ], [ 30.1130324, 59.5723503 ], [ 30.113616, 59.5719453 ], [ 30.1159011, 59.5707171 ], [ 30.1170386, 59.570113 ], [ 30.1181866, 59.5694949 ], [ 30.1185072, 59.5696239 ], [ 30.1187475, 59.5695035 ], [ 30.1197797, 59.5692084 ], [ 30.1208055, 59.5689959 ], [ 30.1213446, 59.5696587 ], [ 30.1204158, 59.5698619 ], [ 30.1207163, 59.570224 ], [ 30.122024, 59.5699663 ], [ 30.122245, 59.5702367 ], [ 30.1223059, 59.5703323 ], [ 30.122877, 59.5710224 ], [ 30.1224577, 59.5711085 ], [ 30.1229456, 59.57161 ], [ 30.1235203, 59.5714663 ], [ 30.1236016, 59.5713583 ], [ 30.1238672, 59.5712905 ], [ 30.1251313, 59.5725052 ], [ 30.1253104, 59.5726426 ], [ 30.1254514, 59.572784 ], [ 30.1259047, 59.5726671 ], [ 30.1266336, 59.5724643 ], [ 30.1264838, 59.5723185 ], [ 30.1262866, 59.5721727 ], [ 30.1261289, 59.5720769 ], [ 30.1257747, 59.5717582 ], [ 30.1254524, 59.571838 ], [ 30.1247197, 59.5711534 ], [ 30.1254817, 59.570953 ], [ 30.1249542, 59.570376 ], [ 30.1253635, 59.5702591 ], [ 30.1251593, 59.5699989 ], [ 30.126284, 59.5696635 ], [ 30.1260898, 59.5695095 ], [ 30.1269818, 59.5692479 ], [ 30.1277255, 59.5690215 ], [ 30.1292696, 59.5686949 ], [ 30.1296572, 59.5686271 ], [ 30.1295216, 59.5684148 ], [ 30.1294523, 59.5682118 ], [ 30.1291085, 59.567693 ], [ 30.1289976, 59.5675239 ], [ 30.1281765, 59.5662965 ], [ 30.1287754, 59.5661942 ], [ 30.1289352, 59.5661658 ], [ 30.1288619, 59.5660599 ], [ 30.1297894, 59.5658952 ], [ 30.1298023, 59.5658158 ], [ 30.1317488, 59.5654352 ], [ 30.1321752, 59.5653637 ], [ 30.1319413, 59.5650558 ], [ 30.131017, 59.5637487 ], [ 30.1281633, 59.5644103 ], [ 30.1279654, 59.564555 ], [ 30.1276174, 59.564633 ], [ 30.1268815, 59.5635792 ], [ 30.126423, 59.5636688 ], [ 30.1262532, 59.5634644 ], [ 30.1257871, 59.5627284 ], [ 30.1265705, 59.5619774 ], [ 30.1286155, 59.5599078 ], [ 30.1295435, 59.5590299 ], [ 30.1328774, 59.5558969 ], [ 30.1329493, 59.555824 ], [ 30.133053, 59.5557007 ], [ 30.1330848, 59.5555602 ], [ 30.1330551, 59.555423 ], [ 30.1326277, 59.5542072 ], [ 30.1325981, 59.5541176 ], [ 30.1314955, 59.5542001 ], [ 30.1302986, 59.5543187 ], [ 30.1301262, 59.5542858 ], [ 30.1299613, 59.5542488 ], [ 30.1290447, 59.5553603 ], [ 30.1273052, 59.5570648 ], [ 30.1259808, 59.5566607 ], [ 30.1256044, 59.5565411 ], [ 30.125432, 59.5565275 ], [ 30.1240881, 59.5568528 ], [ 30.1236363, 59.5570632 ], [ 30.1236723, 59.5570738 ], [ 30.1246708, 59.5573676 ], [ 30.1243666, 59.5577272 ], [ 30.1239666, 59.5579715 ], [ 30.124161, 59.5580227 ], [ 30.1234146, 59.5588255 ], [ 30.1229239, 59.5593534 ], [ 30.1220274, 59.5598017 ], [ 30.1218807, 59.5601474 ], [ 30.1212459, 59.5605709 ], [ 30.1204867, 59.5610773 ], [ 30.1198769, 59.5614841 ], [ 30.1191745, 59.561237 ], [ 30.117904, 59.5614718 ], [ 30.1172098, 59.5617178 ], [ 30.1170927, 59.5616171 ], [ 30.1157728, 59.5623425 ], [ 30.1155027, 59.5623789 ], [ 30.1153701, 59.5623203 ], [ 30.1147979, 59.5617221 ], [ 30.1145416, 59.5614707 ], [ 30.1146842, 59.5613265 ], [ 30.114647, 59.561246 ], [ 30.1148238, 59.5610462 ], [ 30.1145326, 59.5610537 ], [ 30.1144346, 59.5609574 ], [ 30.1142474, 59.5609905 ], [ 30.1142296, 59.5608957 ], [ 30.1141048, 59.5608084 ], [ 30.1142029, 59.5607727 ], [ 30.1141078, 59.5607226 ], [ 30.1140055, 59.5607891 ], [ 30.1140136, 59.5607307 ], [ 30.1140177, 59.5606681 ], [ 30.1139934, 59.5606076 ], [ 30.1139468, 59.5605523 ], [ 30.1138942, 59.5605072 ], [ 30.1141689, 59.5604234 ], [ 30.1136083, 59.5600051 ], [ 30.1132744, 59.5594392 ], [ 30.1128778, 59.5596328 ], [ 30.1126583, 59.5593646 ], [ 30.1135002, 59.5590213 ], [ 30.1136542, 59.5588315 ], [ 30.1135496, 59.5575378 ], [ 30.1129354, 59.5562576 ], [ 30.1126814, 59.555215 ], [ 30.1120234, 59.5540259 ], [ 30.1096202, 59.5521557 ], [ 30.1088539, 59.5521468 ], [ 30.108862, 59.5521747 ], [ 30.1090456, 59.5528085 ], [ 30.1091224, 59.5531101 ], [ 30.1091663, 59.5533148 ], [ 30.1091898, 59.5534245 ], [ 30.1092133, 59.5536187 ], [ 30.1092341, 59.5538102 ], [ 30.1092412, 59.5540341 ], [ 30.1092346, 59.5542241 ], [ 30.1092148, 59.5543751 ], [ 30.1091608, 59.5546512 ], [ 30.1091376, 59.5547271 ], [ 30.1090876, 59.5548911 ], [ 30.1090233, 59.5550656 ], [ 30.1089336, 59.5552801 ], [ 30.1088385, 59.5554634 ], [ 30.108813, 59.555507 ], [ 30.1087649, 59.5555558 ], [ 30.1086639, 59.5556772 ], [ 30.108515, 59.5558579 ], [ 30.1083916, 59.5560604 ], [ 30.1083432, 59.556112 ], [ 30.1082613, 59.5562039 ], [ 30.1080603, 59.5564122 ], [ 30.1079728, 59.5564986 ], [ 30.1078622, 59.5565838 ], [ 30.1076894, 59.5567099 ], [ 30.1075246, 59.556831 ], [ 30.1073495, 59.5569542 ], [ 30.1071359, 59.5570916 ], [ 30.1069274, 59.5572253 ], [ 30.1063514, 59.5575539 ], [ 30.105912, 59.5577982 ], [ 30.1050084, 59.5582575 ], [ 30.1020795, 59.5598512 ], [ 30.1013774, 59.5602397 ], [ 30.1005381, 59.560707 ], [ 30.099483, 59.5613181 ], [ 30.0986701, 59.5617729 ], [ 30.0982069, 59.5620688 ], [ 30.0976901, 59.5624318 ], [ 30.0971075, 59.5627438 ], [ 30.0968237, 59.5629299 ], [ 30.0963728, 59.5632187 ], [ 30.0949278, 59.5640786 ], [ 30.0930856, 59.565281 ], [ 30.0922312, 59.5658129 ], [ 30.0910229, 59.5664876 ], [ 30.0880454, 59.5680585 ], [ 30.0878139, 59.5681768 ], [ 30.0858212, 59.5692228 ], [ 30.0852243, 59.5695283 ], [ 30.0851242, 59.5695795 ], [ 30.0850547, 59.5696163 ], [ 30.0835397, 59.570421 ], [ 30.0833577, 59.5705232 ], [ 30.0827463, 59.5708415 ], [ 30.0775149, 59.5736159 ] ] ] } },
{ "type": "Feature", "properties": { }, "geometry": { "type": "Polygon", "coordinates": [ [ [ 30.0751313, 59.584645 ], [ 30.0772123, 59.5858627 ], [ 30.0816664, 59.5884982 ], [ 30.0819462, 59.5885653 ], [ 30.0833417, 59.5895604 ], [ 30.0848144, 59.5903782 ], [ 30.0855153, 59.5905176 ], [ 30.0859383, 59.5908138 ], [ 30.0868568, 59.5913135 ], [ 30.0893968, 59.592812 ], [ 30.0929226, 59.5937517 ], [ 30.0939479, 59.5931805 ], [ 30.0952873, 59.5926081 ], [ 30.0957622, 59.5924024 ], [ 30.0966441, 59.5921433 ], [ 30.0977674, 59.5918908 ], [ 30.0987359, 59.5916468 ], [ 30.0991487, 59.5915147 ], [ 30.0993687, 59.5913844 ], [ 30.099638, 59.5911816 ], [ 30.1003101, 59.5908345 ], [ 30.1011385, 59.5904686 ], [ 30.1020456, 59.5900147 ], [ 30.1024378, 59.5897859 ], [ 30.1036237, 59.5893444 ], [ 30.1036854, 59.5893079 ], [ 30.1045289, 59.5888083 ], [ 30.1059616, 59.5879597 ], [ 30.1076618, 59.5869526 ], [ 30.107725, 59.5869152 ], [ 30.1091613, 59.5860257 ], [ 30.112898, 59.5837113 ], [ 30.1134033, 59.5834668 ], [ 30.1135082, 59.5833973 ], [ 30.113729, 59.583251 ], [ 30.1171372, 59.5813162 ], [ 30.1169152, 59.5810322 ], [ 30.11577, 59.5788002 ], [ 30.1147252, 59.5767908 ], [ 30.1145963, 59.5765429 ], [ 30.11318, 59.5739235 ], [ 30.1127677, 59.573161 ], [ 30.112743, 59.5728301 ], [ 30.1130324, 59.5723503 ], [ 30.1127804, 59.5724699 ], [ 30.112585, 59.5725292 ], [ 30.1096764, 59.5740901 ], [ 30.1048495, 59.5727692 ], [ 30.1046155, 59.5727034 ], [ 30.1042645, 59.5726534 ], [ 30.1033721, 59.572472 ], [ 30.1032865, 59.5724416 ], [ 30.1034374, 59.5725377 ], [ 30.1034886, 59.5725974 ], [ 30.1034442, 59.572688 ], [ 30.1033175, 59.5727433 ], [ 30.1032045, 59.5727828 ], [ 30.1031791, 59.5727994 ], [ 30.1028562, 59.5727509 ], [ 30.1025873, 59.5727029 ], [ 30.0980621, 59.5719207 ], [ 30.097985, 59.571901 ], [ 30.0977579, 59.5719349 ], [ 30.097662, 59.5719691 ], [ 30.0974992, 59.5719933 ], [ 30.0973589, 59.5720375 ], [ 30.0971864, 59.5721284 ], [ 30.097073, 59.57222 ], [ 30.0969488, 59.5723713 ], [ 30.0966556, 59.5724688 ], [ 30.0963625, 59.5724755 ], [ 30.0961262, 59.5724689 ], [ 30.0957997, 59.5724243 ], [ 30.0954254, 59.5723502 ], [ 30.0951604, 59.5723281 ], [ 30.0948876, 59.5723394 ], [ 30.0946864, 59.5723013 ], [ 30.0945704, 59.5722337 ], [ 30.09444, 59.5721175 ], [ 30.0942397, 59.5720615 ], [ 30.0940799, 59.5721026 ], [ 30.0939938, 59.5721771 ], [ 30.0939855, 59.5722766 ], [ 30.0940214, 59.5723609 ], [ 30.0940598, 59.572448 ], [ 30.0941604, 59.5725067 ], [ 30.0943525, 59.5725262 ], [ 30.0947835, 59.5725667 ], [ 30.0950574, 59.5726603 ], [ 30.0951463, 59.5727973 ], [ 30.0951071, 59.5729048 ], [ 30.0950218, 59.5730036 ], [ 30.0948918, 59.5730589 ], [ 30.0947262, 59.5730651 ], [ 30.0945189, 59.573024 ], [ 30.0940254, 59.5729072 ], [ 30.0938001, 59.5728202 ], [ 30.0936492, 59.5727631 ], [ 30.0933297, 59.5726613 ], [ 30.0930402, 59.572684 ], [ 30.0929242, 59.5726118 ], [ 30.0928308, 59.5725788 ], [ 30.0919606, 59.5722944 ], [ 30.0882434, 59.571077 ], [ 30.0880012, 59.5710447 ], [ 30.0878371, 59.5710693 ], [ 30.0877167, 59.571138 ], [ 30.0876656, 59.571177 ], [ 30.087585, 59.5712205 ], [ 30.0873786, 59.5713422 ], [ 30.0871695, 59.5714337 ], [ 30.0870995, 59.5714736 ], [ 30.0869647, 59.5715245 ], [ 30.0867732, 59.5716026 ], [ 30.0865949, 59.5716977 ], [ 30.0864359, 59.5717211 ], [ 30.0862892, 59.5716976 ], [ 30.0861078, 59.5716255 ], [ 30.0859206, 59.5715253 ], [ 30.0857178, 59.5714542 ], [ 30.08542, 59.5713951 ], [ 30.0853244, 59.5713633 ], [ 30.0851693, 59.5713067 ], [ 30.0850871, 59.5712599 ], [ 30.0849961, 59.5712622 ], [ 30.0848803, 59.5712491 ], [ 30.0848259, 59.5712208 ], [ 30.0848375, 59.5711685 ], [ 30.0847691, 59.5711095 ], [ 30.0846804, 59.5710829 ], [ 30.0845698, 59.5710612 ], [ 30.0845343, 59.5710235 ], [ 30.0845599, 59.5709703 ], [ 30.0844805, 59.5709249 ], [ 30.0843828, 59.5709043 ], [ 30.0842586, 59.570878 ], [ 30.0842149, 59.5708965 ], [ 30.0831016, 59.571366 ], [ 30.082942, 59.5714227 ], [ 30.0820086, 59.5718615 ], [ 30.0819559, 59.5718905 ], [ 30.0818986, 59.5719199 ], [ 30.0807882, 59.5724347 ], [ 30.0806594, 59.5724986 ], [ 30.0783959, 59.5735692 ], [ 30.0779533, 59.5738267 ], [ 30.0775909, 59.5741409 ], [ 30.0774014, 59.5743752 ], [ 30.0773424, 59.5744812 ], [ 30.07734, 59.5745503 ], [ 30.0772563, 59.5751326 ], [ 30.0772356, 59.5756746 ], [ 30.0770985, 59.579263 ], [ 30.0770788, 59.5797096 ], [ 30.0771183, 59.5805356 ], [ 30.0770838, 59.5810097 ], [ 30.0770225, 59.5813268 ], [ 30.0770096, 59.5813775 ], [ 30.0769434, 59.5816885 ], [ 30.0766797, 59.5823471 ], [ 30.0761326, 59.5830232 ], [ 30.075354, 59.5836445 ], [ 30.0748809, 59.5839464 ], [ 30.0743388, 59.5842108 ], [ 30.0751313, 59.584645 ] ] ] } }
]
}
